{
  "type": "FeatureCollection",
  "features": [
    {
      "type": "Feature",
      "geometry": { "type": "Point", "coordinates": [88.3639, 27.5330] },
      "properties": {
        "name": "Kangchenjunga",
        "description": "<h2>🏔️ Kangchenjunga</h2><p>The <strong>third highest mountain</strong> in the world at <strong>8,586 m</strong>, located on the border between Nepal and Sikkim, India.</p><table><tr><th>Attribute</th><th>Value</th></tr><tr><td>Elevation</td><td>8,586 m</td></tr><tr><td>Range</td><td>Himalayas</td></tr><tr><td>First ascent</td><td>1955</td></tr></table><blockquote>\"The abode of snow\" — revered by local communities as a sacred peak.</blockquote>"
      }
    },
    {
      "type": "Feature",
      "geometry": { "type": "Point", "coordinates": [91.7362, 26.1445] },
      "properties": {
        "name": "Guwahati",
        "description": "<h2>🌊 Guwahati</h2><p>The largest city in <strong>Assam</strong> and the gateway to Northeast India, situated on the south bank of the <em>Brahmaputra river</em>.</p><ul><li>Population: ~1 million</li><li>Famous for: Kamakhya Temple, river cruises</li><li>Climate: Tropical monsoon</li></ul>"
      }
    },
    {
      "type": "Feature",
      "geometry": {
        "type": "Polygon",
        "coordinates": [[[90.5, 25.5],[93.5, 25.5],[93.5, 27.5],[90.5, 27.5],[90.5, 25.5]]]
      },
      "properties": {
        "name": "Assam Region",
        "description": "<h2>🌿 Assam</h2><p>A state in <strong>Northeast India</strong>, known for its wildlife sanctuaries, tea gardens, and the mighty Brahmaputra river.</p><p>Assam produces <strong>over 50%</strong> of India's total tea output, making it one of the largest tea-growing regions in the world.</p>"
      }
    }
  ]
}
