{
  "type": "FeatureCollection",
  "features": [
    {
      "type": "Feature",
      "geometry": { "type": "Point", "coordinates": [91.6921, 26.1928] },
      "properties": {
        "place_name": "Central Library",
        "media_type": "text",
        "description": "Main campus library."
      }
    },
    {
      "type": "Feature",
      "geometry": { "type": "Point", "coordinates": [91.6957, 26.1942] },
      "properties": {
        "place_name": "Senate Hall",
        "media_type": "text",
        "description": "Main administrative and convocation building."
      }
    },
    {
      "type": "Feature",
      "geometry": { "type": "Point", "coordinates": [91.6968, 26.1901] },
      "properties": {
        "place_name": "Core 1 & 2 Lecture Complex",
        "media_type": "text",
        "description": "Primary academic lecture halls."
      }
    },
    {
      "type": "Feature",
      "geometry": { "type": "Point", "coordinates": [91.6889, 26.1908] },
      "properties": {
        "place_name": "Brahmaputra Guest House",
        "media_type": "text",
        "description": "On-campus guest accommodation overlooking the river."
      }
    },
    {
      "type": "Feature",
      "geometry": { "type": "Point", "coordinates": [91.6995, 26.1873] },
      "properties": {
        "place_name": "Lake View",
        "media_type": "text",
        "description": "Walking trail along the campus lake."
      }
    },
    {
      "type": "Feature",
      "geometry": { "type": "Point", "coordinates": [91.6932, 26.1965] },
      "properties": {
        "place_name": "Health Centre",
        "media_type": "text",
        "description": "Campus medical facility."
      }
    },
    {
      "type": "Feature",
      "geometry": { "type": "Point", "coordinates": [91.7012, 26.1945] },
      "properties": {
        "place_name": "Sports Complex",
        "media_type": "text",
        "description": "Indoor stadium, swimming pool, and athletics track."
      }
    },
    {
      "type": "Feature",
      "geometry": { "type": "Point", "coordinates": [91.6878, 26.1958] },
      "properties": {
        "place_name": "North Guwahati Gate",
        "media_type": "text",
        "description": "Riverside campus entrance."
      }
    },
    {
      "type": "Feature",
      "geometry": { "type": "Point", "coordinates": [91.6945, 26.1888] },
      "properties": {
        "place_name": "Hostel Zone",
        "media_type": "text",
        "description": "Student residential halls."
      }
    },
    {
      "type": "Feature",
      "geometry": { "type": "Point", "coordinates": [93.1721, 26.5775] },
      "properties": {
        "place_name": "Kaziranga National Park Gate",
        "media_type": "text",
        "description": "Main entrance to the park's central range."
      }
    },
    {
      "type": "Feature",
      "geometry": { "type": "Point", "coordinates": [92.7933, 26.6528] },
      "properties": {
        "place_name": "Tezpur",
        "media_type": "text",
        "description": "Town on the north bank of the Brahmaputra."
      }
    },
    {
      "type": "Feature",
      "geometry": { "type": "Point", "coordinates": [94.2037, 26.7509] },
      "properties": {
        "place_name": "Jorhat",
        "media_type": "text",
        "description": "Tea-industry hub in Upper Assam."
      }
    },
    {
      "type": "Feature",
      "geometry": { "type": "Point", "coordinates": [94.2202, 26.9526] },
      "properties": {
        "place_name": "Majuli",
        "media_type": "text",
        "description": "Large river island on the Brahmaputra."
      }
    }
  ]
}
