{
  "type": "FeatureCollection",
  "features": [
    {
      "type": "Feature",
      "properties": {
        "id": "FC000016",
        "name": "IITG"
      },
      "geometry": {
        "type": "Polygon",
        "coordinates": [
          [
            [
              91.689008,
              26.182963
            ],
            [
              91.68888,
              26.182903
            ],
            [
              91.68874,
              26.182876
            ],
            [
              91.688547,
              26.182878
            ],
            [
              91.688394,
              26.182886
            ],
            [
              91.688314,
              26.182886
            ],
            [
              91.688166,
              26.182893
            ],
            [
              91.688043,
              26.18291
            ],
            [
              91.68789,
              26.18296
            ],
            [
              91.687777,
              26.182999
            ],
            [
              91.687675,
              26.183047
            ],
            [
              91.687579,
              26.183093
            ],
            [
              91.687501,
              26.18317
            ],
            [
              91.687437,
              26.183276
            ],
            [
              91.687335,
              26.183394
            ],
            [
              91.687276,
              26.183504
            ],
            [
              91.687225,
              26.183576
            ],
            [
              91.687195,
              26.183646
            ],
            [
              91.687246,
              26.183699
            ],
            [
              91.687311,
              26.183771
            ],
            [
              91.68734,
              26.183856
            ],
            [
              91.687394,
              26.183952
            ],
            [
              91.687445,
              26.184031
            ],
            [
              91.687506,
              26.184084
            ],
            [
              91.68756,
              26.184125
            ],
            [
              91.687595,
              26.184137
            ],
            [
              91.687649,
              26.18413
            ],
            [
              91.687692,
              26.184132
            ],
            [
              91.687748,
              26.184181
            ],
            [
              91.687791,
              26.184337
            ],
            [
              91.68782,
              26.18451
            ],
            [
              91.68786,
              26.184751
            ],
            [
              91.687898,
              26.184982
            ],
            [
              91.68818,
              26.18496
            ],
            [
              91.688257,
              26.185146
            ],
            [
              91.688287,
              26.185309
            ],
            [
              91.688314,
              26.185504
            ],
            [
              91.688335,
              26.185707
            ],
            [
              91.688362,
              26.185914
            ],
            [
              91.688384,
              26.186036
            ],
            [
              91.688421,
              26.186183
            ],
            [
              91.688475,
              26.186332
            ],
            [
              91.688528,
              26.186484
            ],
            [
              91.688526,
              26.186592
            ],
            [
              91.688577,
              26.186641
            ],
            [
              91.688571,
              26.186761
            ],
            [
              91.688665,
              26.186816
            ],
            [
              91.68866,
              26.187225
            ],
            [
              91.688644,
              26.187404
            ],
            [
              91.688628,
              26.187493
            ],
            [
              91.688603,
              26.187553
            ],
            [
              91.688544,
              26.18755
            ],
            [
              91.688408,
              26.187488
            ],
            [
              91.688303,
              26.187447
            ],
            [
              91.688231,
              26.187447
            ],
            [
              91.688161,
              26.187483
            ],
            [
              91.688067,
              26.187562
            ],
            [
              91.687995,
              26.187659
            ],
            [
              91.687941,
              26.187755
            ],
            [
              91.687917,
              26.187854
            ],
            [
              91.687917,
              26.187947
            ],
            [
              91.687946,
              26.188032
            ],
            [
              91.688013,
              26.188094
            ],
            [
              91.688153,
              26.188195
            ],
            [
              91.688255,
              26.188304
            ],
            [
              91.688354,
              26.188386
            ],
            [
              91.688392,
              26.188448
            ],
            [
              91.688381,
              26.188523
            ],
            [
              91.688351,
              26.188633
            ],
            [
              91.688298,
              26.188735
            ],
            [
              91.688231,
              26.188804
            ],
            [
              91.688126,
              26.188869
            ],
            [
              91.688013,
              26.188922
            ],
            [
              91.687922,
              26.188925
            ],
            [
              91.687793,
              26.18891
            ],
            [
              91.687689,
              26.188891
            ],
            [
              91.687552,
              26.188862
            ],
            [
              91.687464,
              26.188836
            ],
            [
              91.687396,
              26.188807
            ],
            [
              91.687268,
              26.188797
            ],
            [
              91.687187,
              26.188807
            ],
            [
              91.687085,
              26.188843
            ],
            [
              91.687002,
              26.188973
            ],
            [
              91.686946,
              26.189103
            ],
            [
              91.686916,
              26.189146
            ],
            [
              91.686782,
              26.189103
            ],
            [
              91.686683,
              26.189064
            ],
            [
              91.686621,
              26.189062
            ],
            [
              91.686568,
              26.189144
            ],
            [
              91.686538,
              26.189213
            ],
            [
              91.686619,
              26.189526
            ],
            [
              91.686605,
              26.189683
            ],
            [
              91.686573,
              26.189813
            ],
            [
              91.686498,
              26.189981
            ],
            [
              91.686436,
              26.190138
            ],
            [
              91.686348,
              26.190318
            ],
            [
              91.686273,
              26.190463
            ],
            [
              91.6862,
              26.190607
            ],
            [
              91.686176,
              26.190708
            ],
            [
              91.686149,
              26.190809
            ],
            [
              91.686152,
              26.190886
            ],
            [
              91.686203,
              26.191002
            ],
            [
              91.686283,
              26.191127
            ],
            [
              91.686334,
              26.191226
            ],
            [
              91.686393,
              26.191319
            ],
            [
              91.686409,
              26.191394
            ],
            [
              91.686434,
              26.191601
            ],
            [
              91.68645,
              26.191755
            ],
            [
              91.686476,
              26.191883
            ],
            [
              91.686498,
              26.19196
            ],
            [
              91.686538,
              26.192037
            ],
            [
              91.686581,
              26.192126
            ],
            [
              91.686616,
              26.19233
            ],
            [
              91.686637,
              26.192477
            ],
            [
              91.686651,
              26.192593
            ],
            [
              91.686686,
              26.192732
            ],
            [
              91.686686,
              26.192831
            ],
            [
              91.686683,
              26.192891
            ],
            [
              91.686739,
              26.192942
            ],
            [
              91.686772,
              26.193038
            ],
            [
              91.686777,
              26.193206
            ],
            [
              91.686772,
              26.19331
            ],
            [
              91.686782,
              26.193483
            ],
            [
              91.686833,
              26.1937
            ],
            [
              91.686876,
              26.193904
            ],
            [
              91.686946,
              26.194208
            ],
            [
              91.686973,
              26.194357
            ],
            [
              91.687013,
              26.194504
            ],
            [
              91.687072,
              26.194715
            ],
            [
              91.687131,
              26.194903
            ],
            [
              91.687198,
              26.195086
            ],
            [
              91.687316,
              26.195406
            ],
            [
              91.687383,
              26.195536
            ],
            [
              91.687477,
              26.195613
            ],
            [
              91.687552,
              26.195688
            ],
            [
              91.68763,
              26.195736
            ],
            [
              91.687702,
              26.195736
            ],
            [
              91.687852,
              26.195702
            ],
            [
              91.688035,
              26.195659
            ],
            [
              91.688142,
              26.195688
            ],
            [
              91.688209,
              26.19575
            ],
            [
              91.688083,
              26.195844
            ],
            [
              91.68797,
              26.195933
            ],
            [
              91.687807,
              26.196001
            ],
            [
              91.687638,
              26.196054
            ],
            [
              91.687482,
              26.196097
            ],
            [
              91.68756,
              26.196405
            ],
            [
              91.6876,
              26.19659
            ],
            [
              91.687635,
              26.196776
            ],
            [
              91.68767,
              26.196946
            ],
            [
              91.687694,
              26.197072
            ],
            [
              91.687692,
              26.197194
            ],
            [
              91.687659,
              26.1975
            ],
            [
              91.687649,
              26.197683
            ],
            [
              91.687654,
              26.197791
            ],
            [
              91.687678,
              26.197875
            ],
            [
              91.687726,
              26.197928
            ],
            [
              91.68782,
              26.198005
            ],
            [
              91.687979,
              26.198066
            ],
            [
              91.688225,
              26.198167
            ],
            [
              91.68837,
              26.19822
            ],
            [
              91.688727,
              26.198371
            ],
            [
              91.688963,
              26.19846
            ],
            [
              91.689143,
              26.19854
            ],
            [
              91.689314,
              26.198617
            ],
            [
              91.689467,
              26.198689
            ],
            [
              91.689615,
              26.198732
            ],
            [
              91.689743,
              26.198689
            ],
            [
              91.689934,
              26.198609
            ],
            [
              91.690081,
              26.198554
            ],
            [
              91.690151,
              26.198537
            ],
            [
              91.690191,
              26.198581
            ],
            [
              91.69039,
              26.19891
            ],
            [
              91.690618,
              26.199339
            ],
            [
              91.690993,
              26.200008
            ],
            [
              91.691176,
              26.20034
            ],
            [
              91.691259,
              26.200434
            ],
            [
              91.691342,
              26.200506
            ],
            [
              91.691452,
              26.200566
            ],
            [
              91.691618,
              26.200612
            ],
            [
              91.69187,
              26.20067
            ],
            [
              91.69245,
              26.200775
            ],
            [
              91.693313,
              26.200949
            ],
            [
              91.694067,
              26.201122
            ],
            [
              91.694486,
              26.201197
            ],
            [
              91.694762,
              26.201266
            ],
            [
              91.695086,
              26.201331
            ],
            [
              91.695296,
              26.201372
            ],
            [
              91.695824,
              26.201464
            ],
            [
              91.69639,
              26.201565
            ],
            [
              91.696744,
              26.20163
            ],
            [
              91.697184,
              26.201716
            ],
            [
              91.697393,
              26.201748
            ],
            [
              91.697447,
              26.20176
            ],
            [
              91.69753,
              26.20162
            ],
            [
              91.697688,
              26.201336
            ],
            [
              91.697782,
              26.201122
            ],
            [
              91.69794,
              26.200756
            ],
            [
              91.698064,
              26.200417
            ],
            [
              91.698139,
              26.200222
            ],
            [
              91.698316,
              26.199741
            ],
            [
              91.698428,
              26.199493
            ],
            [
              91.698477,
              26.19931
            ],
            [
              91.698509,
              26.199158
            ],
            [
              91.698605,
              26.198763
            ],
            [
              91.698632,
              26.198581
            ],
            [
              91.698648,
              26.19841
            ],
            [
              91.698632,
              26.198354
            ],
            [
              91.698549,
              26.198299
            ],
            [
              91.698402,
              26.198292
            ],
            [
              91.698233,
              26.198289
            ],
            [
              91.698045,
              26.198287
            ],
            [
              91.69787,
              26.198181
            ],
            [
              91.697841,
              26.198037
            ],
            [
              91.697857,
              26.197856
            ],
            [
              91.697854,
              26.1977
            ],
            [
              91.697887,
              26.197274
            ],
            [
              91.697948,
              26.197221
            ],
            [
              91.698031,
              26.197129
            ],
            [
              91.698085,
              26.196995
            ],
            [
              91.698168,
              26.196848
            ],
            [
              91.698235,
              26.19679
            ],
            [
              91.698458,
              26.196646
            ],
            [
              91.698694,
              26.196496
            ],
            [
              91.698887,
              26.196369
            ],
            [
              91.699483,
              26.196458
            ],
            [
              91.699517,
              26.196715
            ],
            [
              91.700502,
              26.196739
            ],
            [
              91.700711,
              26.196874
            ],
            [
              91.701019,
              26.196983
            ],
            [
              91.701449,
              26.197108
            ],
            [
              91.701913,
              26.197334
            ],
            [
              91.70228,
              26.197548
            ],
            [
              91.702583,
              26.197736
            ],
            [
              91.702752,
              26.197849
            ],
            [
              91.702779,
              26.197392
            ],
            [
              91.702806,
              26.196585
            ],
            [
              91.702819,
              26.195965
            ],
            [
              91.702846,
              26.195505
            ],
            [
              91.702865,
              26.194946
            ],
            [
              91.702884,
              26.194362
            ],
            [
              91.7029,
              26.194126
            ],
            [
              91.70291,
              26.193772
            ],
            [
              91.702961,
              26.193293
            ],
            [
              91.702988,
              26.192619
            ],
            [
              91.70301,
              26.192005
            ],
            [
              91.703015,
              26.191815
            ],
            [
              91.703066,
              26.191587
            ],
            [
              91.703152,
              26.191375
            ],
            [
              91.703329,
              26.191209
            ],
            [
              91.703409,
              26.191182
            ],
            [
              91.703449,
              26.191014
            ],
            [
              91.703533,
              26.190754
            ],
            [
              91.703653,
              26.19047
            ],
            [
              91.703908,
              26.190393
            ],
            [
              91.703986,
              26.18994
            ],
            [
              91.704335,
              26.189021
            ],
            [
              91.703315,
              26.188747
            ],
            [
              91.703329,
              26.188393
            ],
            [
              91.702481,
              26.188109
            ],
            [
              91.70209,
              26.187969
            ],
            [
              91.701784,
              26.187837
            ],
            [
              91.701215,
              26.187562
            ],
            [
              91.700818,
              26.187293
            ],
            [
              91.700818,
              26.187144
            ],
            [
              91.700805,
              26.187011
            ],
            [
              91.700759,
              26.186927
            ],
            [
              91.700826,
              26.186631
            ],
            [
              91.700891,
              26.186448
            ],
            [
              91.700357,
              26.186342
            ],
            [
              91.70044,
              26.185767
            ],
            [
              91.700231,
              26.185752
            ],
            [
              91.700234,
              26.185367
            ],
            [
              91.700102,
              26.185317
            ],
            [
              91.699933,
              26.185297
            ],
            [
              91.699753,
              26.185285
            ],
            [
              91.699708,
              26.185285
            ],
            [
              91.699638,
              26.185223
            ],
            [
              91.699531,
              26.185081
            ],
            [
              91.699442,
              26.184965
            ],
            [
              91.699139,
              26.184806
            ],
            [
              91.698731,
              26.184676
            ],
            [
              91.69882,
              26.184368
            ],
            [
              91.698423,
              26.184217
            ],
            [
              91.698321,
              26.184147
            ],
            [
              91.697956,
              26.184029
            ],
            [
              91.697474,
              26.183889
            ],
            [
              91.697103,
              26.183762
            ],
            [
              91.696706,
              26.183598
            ],
            [
              91.696248,
              26.18342
            ],
            [
              91.696033,
              26.183319
            ],
            [
              91.695424,
              26.183059
            ],
            [
              91.69529,
              26.183444
            ],
            [
              91.695199,
              26.183788
            ],
            [
              91.695129,
              26.183954
            ],
            [
              91.694984,
              26.184188
            ],
            [
              91.694909,
              26.18419
            ],
            [
              91.694778,
              26.184359
            ],
            [
              91.694646,
              26.184385
            ],
            [
              91.694343,
              26.184366
            ],
            [
              91.694094,
              26.184352
            ],
            [
              91.693842,
              26.184325
            ],
            [
              91.693541,
              26.184282
            ],
            [
              91.693338,
              26.184243
            ],
            [
              91.693115,
              26.184226
            ],
            [
              91.692922,
              26.184231
            ],
            [
              91.692793,
              26.184217
            ],
            [
              91.692702,
              26.184161
            ],
            [
              91.692519,
              26.183916
            ],
            [
              91.6923,
              26.183918
            ],
            [
              91.692305,
              26.183533
            ],
            [
              91.692318,
              26.182826
            ],
            [
              91.692275,
              26.182746
            ],
            [
              91.692297,
              26.182508
            ],
            [
              91.691806,
              26.182525
            ],
            [
              91.691275,
              26.182517
            ],
            [
              91.690988,
              26.182515
            ],
            [
              91.690865,
              26.182525
            ],
            [
              91.690738,
              26.18284
            ],
            [
              91.690561,
              26.18284
            ],
            [
              91.690347,
              26.182881
            ],
            [
              91.690202,
              26.182936
            ],
            [
              91.690052,
              26.182903
            ],
            [
              91.689797,
              26.182854
            ],
            [
              91.68958,
              26.182821
            ],
            [
              91.689389,
              26.18284
            ],
            [
              91.689304,
              26.182859
            ],
            [
              91.689202,
              26.182948
            ],
            [
              91.689008,
              26.182963
            ]
          ]
        ]
      }
    }
  ]
}