{
"type": "FeatureCollection",
"features": [
{ "type": "Feature", "properties": { "id": "1", "NAME": "Kaziranga Area", "PERIMETER": "127.86 km", "ENCLOSED_AREA": "369.46 sq km", "LENGTH": "", "BEARING": "" }, "geometry": { "type": "Polygon", "coordinates": [ [ [ 93.509145, 26.660423 ], [ 93.508351, 26.660979 ], [ 93.507557, 26.661247 ], [ 93.507214, 26.661612 ], [ 93.507471, 26.661918 ], [ 93.508286, 26.662148 ], [ 93.508909, 26.662379 ], [ 93.509574, 26.662724 ], [ 93.510368, 26.662839 ], [ 93.511140, 26.662992 ], [ 93.512127, 26.663280 ], [ 93.513222, 26.663606 ], [ 93.513651, 26.664009 ], [ 93.514380, 26.664124 ], [ 93.515325, 26.664143 ], [ 93.515925, 26.664239 ], [ 93.516612, 26.664661 ], [ 93.516741, 26.665178 ], [ 93.516998, 26.665696 ], [ 93.517170, 26.665964 ], [ 93.517857, 26.666003 ], [ 93.518586, 26.666003 ], [ 93.519337, 26.666060 ], [ 93.520045, 26.666060 ], [ 93.520625, 26.666022 ], [ 93.521783, 26.665907 ], [ 93.522749, 26.665849 ], [ 93.523350, 26.665696 ], [ 93.524251, 26.665504 ], [ 93.524873, 26.665466 ], [ 93.525646, 26.665332 ], [ 93.526461, 26.665332 ], [ 93.527191, 26.665217 ], [ 93.527534, 26.665082 ], [ 93.528113, 26.664737 ], [ 93.528521, 26.664277 ], [ 93.529058, 26.664047 ], [ 93.529572, 26.663855 ], [ 93.529937, 26.663702 ], [ 93.530538, 26.663472 ], [ 93.531096, 26.663242 ], [ 93.531976, 26.662877 ], [ 93.532641, 26.662916 ], [ 93.533521, 26.662935 ], [ 93.534272, 26.662858 ], [ 93.534958, 26.662781 ], [ 93.535388, 26.662590 ], [ 93.535988, 26.662551 ], [ 93.536654, 26.662455 ], [ 93.537426, 26.662494 ], [ 93.538198, 26.662551 ], [ 93.539422, 26.662781 ], [ 93.540001, 26.662551 ], [ 93.540301, 26.662532 ], [ 93.540902, 26.662666 ], [ 93.541739, 26.662724 ], [ 93.542254, 26.662896 ], [ 93.542812, 26.663184 ], [ 93.543477, 26.663510 ], [ 93.544185, 26.663644 ], [ 93.544722, 26.663798 ], [ 93.545666, 26.664277 ], [ 93.546288, 26.664392 ], [ 93.546932, 26.664545 ], [ 93.547597, 26.664737 ], [ 93.547983, 26.664833 ], [ 93.548799, 26.665025 ], [ 93.549700, 26.665217 ], [ 93.550408, 26.665351 ], [ 93.550987, 26.665428 ], [ 93.551524, 26.665523 ], [ 93.552296, 26.665562 ], [ 93.553047, 26.665581 ], [ 93.553991, 26.665504 ], [ 93.555064, 26.665447 ], [ 93.555794, 26.665466 ], [ 93.556352, 26.665312 ], [ 93.556910, 26.665255 ], [ 93.557553, 26.665121 ], [ 93.558068, 26.664910 ], [ 93.558776, 26.664699 ], [ 93.559463, 26.664526 ], [ 93.559806, 26.664258 ], [ 93.560643, 26.663855 ], [ 93.561308, 26.663663 ], [ 93.561952, 26.663587 ], [ 93.563497, 26.663395 ], [ 93.564055, 26.663357 ], [ 93.564785, 26.663376 ], [ 93.565385, 26.663510 ], [ 93.565943, 26.663683 ], [ 93.566587, 26.663989 ], [ 93.567359, 26.664584 ], [ 93.568025, 26.664929 ], [ 93.568776, 26.665312 ], [ 93.569376, 26.665869 ], [ 93.570042, 26.666482 ], [ 93.570664, 26.667000 ], [ 93.571393, 26.667652 ], [ 93.572338, 26.668649 ], [ 93.573024, 26.669128 ], [ 93.573818, 26.669857 ], [ 93.574505, 26.670471 ], [ 93.575170, 26.671084 ], [ 93.575535, 26.671468 ], [ 93.576307, 26.671928 ], [ 93.576994, 26.672292 ], [ 93.577552, 26.672676 ], [ 93.578174, 26.673213 ], [ 93.578711, 26.673673 ], [ 93.579204, 26.674152 ], [ 93.579633, 26.674478 ], [ 93.579955, 26.675302 ], [ 93.580363, 26.676223 ], [ 93.580642, 26.676856 ], [ 93.580792, 26.677297 ], [ 93.581414, 26.677891 ], [ 93.582144, 26.678370 ], [ 93.582723, 26.678811 ], [ 93.583217, 26.679291 ], [ 93.583903, 26.679674 ], [ 93.584633, 26.680077 ], [ 93.585083, 26.680403 ], [ 93.585770, 26.680690 ], [ 93.586371, 26.680844 ], [ 93.587079, 26.681131 ], [ 93.587487, 26.681572 ], [ 93.588195, 26.682071 ], [ 93.588560, 26.682703 ], [ 93.588946, 26.683336 ], [ 93.589182, 26.683854 ], [ 93.589268, 26.684429 ], [ 93.589203, 26.684985 ], [ 93.589096, 26.685387 ], [ 93.589032, 26.685752 ], [ 93.588645, 26.686154 ], [ 93.588688, 26.686672 ], [ 93.588753, 26.687343 ], [ 93.588881, 26.687803 ], [ 93.588903, 26.688282 ], [ 93.588860, 26.688858 ], [ 93.588758, 26.689198 ], [ 93.588608, 26.689524 ], [ 93.588490, 26.689883 ], [ 93.588356, 26.690334 ], [ 93.588200, 26.690746 ], [ 93.588034, 26.691321 ], [ 93.587953, 26.691666 ], [ 93.587793, 26.691824 ], [ 93.587444, 26.692035 ], [ 93.587165, 26.692213 ], [ 93.586859, 26.692395 ], [ 93.586628, 26.692553 ], [ 93.586387, 26.692754 ], [ 93.586108, 26.692975 ], [ 93.585781, 26.693262 ], [ 93.585486, 26.693463 ], [ 93.585132, 26.693679 ], [ 93.584826, 26.693866 ], [ 93.584670, 26.693976 ], [ 93.584134, 26.694278 ], [ 93.583624, 26.694532 ], [ 93.583152, 26.694772 ], [ 93.582723, 26.694992 ], [ 93.582342, 26.695103 ], [ 93.581999, 26.695275 ], [ 93.581602, 26.695457 ], [ 93.581264, 26.695591 ], [ 93.580170, 26.695941 ], [ 93.579445, 26.696190 ], [ 93.578609, 26.696382 ], [ 93.578244, 26.696507 ], [ 93.577777, 26.696646 ], [ 93.577348, 26.696809 ], [ 93.577117, 26.696967 ], [ 93.576661, 26.697159 ], [ 93.576361, 26.697274 ], [ 93.575980, 26.697326 ], [ 93.575497, 26.697432 ], [ 93.575057, 26.697552 ], [ 93.574521, 26.697667 ], [ 93.574076, 26.697777 ], [ 93.573673, 26.697949 ], [ 93.573228, 26.698122 ], [ 93.572933, 26.698227 ], [ 93.572697, 26.698246 ], [ 93.572332, 26.698242 ], [ 93.572091, 26.698309 ], [ 93.571807, 26.698448 ], [ 93.571045, 26.698611 ], [ 93.570482, 26.698721 ], [ 93.569945, 26.698812 ], [ 93.569419, 26.698941 ], [ 93.568701, 26.699061 ], [ 93.568132, 26.699191 ], [ 93.567606, 26.699349 ], [ 93.567129, 26.699425 ], [ 93.566592, 26.699497 ], [ 93.566147, 26.699536 ], [ 93.565809, 26.699540 ], [ 93.565219, 26.699512 ], [ 93.564457, 26.699473 ], [ 93.563819, 26.699440 ], [ 93.563132, 26.699473 ], [ 93.562548, 26.699488 ], [ 93.562135, 26.699502 ], [ 93.561378, 26.699526 ], [ 93.560997, 26.699492 ], [ 93.560514, 26.699497 ], [ 93.560069, 26.699560 ], [ 93.559849, 26.699560 ], [ 93.559699, 26.699512 ], [ 93.559474, 26.699421 ], [ 93.559088, 26.699382 ], [ 93.558733, 26.699454 ], [ 93.558336, 26.699516 ], [ 93.557746, 26.699612 ], [ 93.557253, 26.699660 ], [ 93.556910, 26.699708 ], [ 93.556454, 26.699737 ], [ 93.556078, 26.699699 ], [ 93.555815, 26.699723 ], [ 93.555354, 26.699780 ], [ 93.554844, 26.699900 ], [ 93.554447, 26.699919 ], [ 93.554168, 26.699996 ], [ 93.553997, 26.700173 ], [ 93.553868, 26.700384 ], [ 93.553584, 26.700590 ], [ 93.553165, 26.700667 ], [ 93.552811, 26.700710 ], [ 93.552302, 26.700801 ], [ 93.551947, 26.700806 ], [ 93.551760, 26.700719 ], [ 93.551583, 26.700628 ], [ 93.551175, 26.700552 ], [ 93.550918, 26.700504 ], [ 93.550805, 26.700427 ], [ 93.550515, 26.700437 ], [ 93.550183, 26.700499 ], [ 93.549748, 26.700561 ], [ 93.549367, 26.700590 ], [ 93.549002, 26.700681 ], [ 93.548718, 26.700700 ], [ 93.548471, 26.700686 ], [ 93.548107, 26.700739 ], [ 93.547720, 26.700858 ], [ 93.547377, 26.700940 ], [ 93.547077, 26.700978 ], [ 93.546728, 26.701016 ], [ 93.546288, 26.701016 ], [ 93.545934, 26.701132 ], [ 93.545596, 26.701170 ], [ 93.545322, 26.701223 ], [ 93.544824, 26.701299 ], [ 93.544373, 26.701419 ], [ 93.544153, 26.701477 ], [ 93.543890, 26.701491 ], [ 93.543676, 26.701572 ], [ 93.543397, 26.701673 ], [ 93.543203, 26.701750 ], [ 93.543005, 26.701774 ], [ 93.542817, 26.701850 ], [ 93.542576, 26.701937 ], [ 93.542501, 26.702071 ], [ 93.542452, 26.702186 ], [ 93.542233, 26.702210 ], [ 93.542072, 26.702176 ], [ 93.541739, 26.702186 ], [ 93.541315, 26.702243 ], [ 93.540682, 26.702267 ], [ 93.540205, 26.702330 ], [ 93.539754, 26.702459 ], [ 93.539363, 26.702526 ], [ 93.538928, 26.702584 ], [ 93.538542, 26.702670 ], [ 93.538118, 26.702761 ], [ 93.537839, 26.702871 ], [ 93.537608, 26.702914 ], [ 93.537421, 26.702881 ], [ 93.537179, 26.702881 ], [ 93.536949, 26.702919 ], [ 93.536450, 26.702938 ], [ 93.535919, 26.702953 ], [ 93.535398, 26.702967 ], [ 93.535173, 26.702924 ], [ 93.534964, 26.702948 ], [ 93.534620, 26.703005 ], [ 93.534309, 26.703039 ], [ 93.533993, 26.703063 ], [ 93.533708, 26.703072 ], [ 93.533354, 26.703077 ], [ 93.533145, 26.703101 ], [ 93.532898, 26.703058 ], [ 93.532566, 26.702967 ], [ 93.532062, 26.702900 ], [ 93.531649, 26.702862 ], [ 93.531241, 26.702818 ], [ 93.530822, 26.702847 ], [ 93.530393, 26.702852 ], [ 93.530125, 26.702890 ], [ 93.529460, 26.703053 ], [ 93.528848, 26.703135 ], [ 93.528403, 26.703235 ], [ 93.527931, 26.703355 ], [ 93.527604, 26.703461 ], [ 93.527116, 26.703624 ], [ 93.526810, 26.703758 ], [ 93.526429, 26.703892 ], [ 93.526048, 26.704064 ], [ 93.525823, 26.704218 ], [ 93.525544, 26.704285 ], [ 93.525259, 26.704453 ], [ 93.525125, 26.704558 ], [ 93.524272, 26.704846 ], [ 93.523881, 26.705047 ], [ 93.523527, 26.705310 ], [ 93.523269, 26.705377 ], [ 93.522990, 26.705588 ], [ 93.522642, 26.705689 ], [ 93.522186, 26.705866 ], [ 93.521885, 26.705943 ], [ 93.521601, 26.706087 ], [ 93.521419, 26.706149 ], [ 93.521124, 26.706331 ], [ 93.520684, 26.706484 ], [ 93.520228, 26.706628 ], [ 93.519890, 26.706791 ], [ 93.519552, 26.706973 ], [ 93.519149, 26.707179 ], [ 93.518844, 26.707299 ], [ 93.518511, 26.707385 ], [ 93.518162, 26.707534 ], [ 93.517894, 26.707711 ], [ 93.517647, 26.707845 ], [ 93.517224, 26.707984 ], [ 93.516977, 26.708114 ], [ 93.516698, 26.708329 ], [ 93.516440, 26.708420 ], [ 93.516231, 26.708531 ], [ 93.516199, 26.708694 ], [ 93.516017, 26.708804 ], [ 93.515813, 26.708804 ], [ 93.515695, 26.708866 ], [ 93.515512, 26.708842 ], [ 93.515319, 26.708919 ], [ 93.515233, 26.709072 ], [ 93.515019, 26.709144 ], [ 93.514772, 26.709326 ], [ 93.514622, 26.709412 ], [ 93.514429, 26.709417 ], [ 93.514246, 26.709446 ], [ 93.514134, 26.709556 ], [ 93.514155, 26.709657 ], [ 93.514016, 26.709805 ], [ 93.513806, 26.709901 ], [ 93.513613, 26.709954 ], [ 93.513485, 26.710146 ], [ 93.513302, 26.710347 ], [ 93.513050, 26.710562 ], [ 93.512943, 26.710697 ], [ 93.512862, 26.710826 ], [ 93.512637, 26.710984 ], [ 93.512374, 26.711099 ], [ 93.512213, 26.711161 ], [ 93.512106, 26.711339 ], [ 93.511993, 26.711435 ], [ 93.511934, 26.711530 ], [ 93.511924, 26.711636 ], [ 93.511747, 26.711775 ], [ 93.511677, 26.711866 ], [ 93.511521, 26.712221 ], [ 93.511344, 26.712374 ], [ 93.511108, 26.712542 ], [ 93.510931, 26.712738 ], [ 93.510888, 26.713021 ], [ 93.510802, 26.713203 ], [ 93.510786, 26.713380 ], [ 93.510695, 26.713514 ], [ 93.510572, 26.713591 ], [ 93.510379, 26.713816 ], [ 93.510218, 26.714085 ], [ 93.510089, 26.714219 ], [ 93.510025, 26.714353 ], [ 93.509987, 26.714535 ], [ 93.509837, 26.714607 ], [ 93.509767, 26.714755 ], [ 93.509730, 26.714918 ], [ 93.509520, 26.715019 ], [ 93.509451, 26.715297 ], [ 93.509493, 26.715541 ], [ 93.509338, 26.715637 ], [ 93.509290, 26.715752 ], [ 93.509252, 26.715877 ], [ 93.509177, 26.716049 ], [ 93.509048, 26.716382 ], [ 93.508828, 26.716552 ], [ 93.508689, 26.716811 ], [ 93.508571, 26.717055 ], [ 93.508388, 26.717247 ], [ 93.508195, 26.717324 ], [ 93.507965, 26.717415 ], [ 93.507707, 26.717525 ], [ 93.507611, 26.717630 ], [ 93.507503, 26.717803 ], [ 93.507482, 26.717937 ], [ 93.507525, 26.718043 ], [ 93.507632, 26.718114 ], [ 93.507535, 26.718229 ], [ 93.507380, 26.718316 ], [ 93.507181, 26.718483 ], [ 93.507112, 26.718665 ], [ 93.506988, 26.718838 ], [ 93.506779, 26.719073 ], [ 93.506532, 26.719303 ], [ 93.506479, 26.719432 ], [ 93.506371, 26.719528 ], [ 93.506189, 26.719676 ], [ 93.506082, 26.719854 ], [ 93.505915, 26.719993 ], [ 93.505787, 26.720132 ], [ 93.505685, 26.720251 ], [ 93.505561, 26.720400 ], [ 93.505492, 26.720534 ], [ 93.505352, 26.720687 ], [ 93.505245, 26.720793 ], [ 93.504928, 26.721234 ], [ 93.504891, 26.721464 ], [ 93.504725, 26.721617 ], [ 93.504617, 26.721790 ], [ 93.504413, 26.721972 ], [ 93.504290, 26.722206 ], [ 93.504113, 26.722302 ], [ 93.503947, 26.722503 ], [ 93.503802, 26.722695 ], [ 93.503700, 26.722839 ], [ 93.503614, 26.722968 ], [ 93.503469, 26.723069 ], [ 93.503212, 26.723261 ], [ 93.502874, 26.723605 ], [ 93.502718, 26.723816 ], [ 93.502493, 26.724065 ], [ 93.502321, 26.724276 ], [ 93.502117, 26.724478 ], [ 93.501758, 26.724779 ], [ 93.501608, 26.724909 ], [ 93.501211, 26.725259 ], [ 93.500964, 26.725388 ], [ 93.500776, 26.725556 ], [ 93.500546, 26.725805 ], [ 93.500336, 26.726011 ], [ 93.500165, 26.726174 ], [ 93.499859, 26.726375 ], [ 93.499559, 26.726571 ], [ 93.499355, 26.726672 ], [ 93.499205, 26.726849 ], [ 93.499017, 26.726983 ], [ 93.498781, 26.727055 ], [ 93.498180, 26.727348 ], [ 93.497558, 26.727616 ], [ 93.496399, 26.728095 ], [ 93.494811, 26.728766 ], [ 93.493845, 26.729226 ], [ 93.492944, 26.729647 ], [ 93.492107, 26.730088 ], [ 93.491292, 26.730491 ], [ 93.489919, 26.731161 ], [ 93.488867, 26.731621 ], [ 93.488116, 26.732081 ], [ 93.487215, 26.732618 ], [ 93.486636, 26.732771 ], [ 93.485756, 26.733097 ], [ 93.484833, 26.733557 ], [ 93.484104, 26.734036 ], [ 93.483202, 26.734419 ], [ 93.482409, 26.734975 ], [ 93.481700, 26.735416 ], [ 93.481121, 26.735703 ], [ 93.480456, 26.736106 ], [ 93.479533, 26.736566 ], [ 93.478868, 26.736968 ], [ 93.478353, 26.737313 ], [ 93.477924, 26.737639 ], [ 93.477473, 26.737984 ], [ 93.477001, 26.738271 ], [ 93.476400, 26.738444 ], [ 93.475821, 26.738750 ], [ 93.475435, 26.739095 ], [ 93.474898, 26.739555 ], [ 93.474512, 26.739785 ], [ 93.474104, 26.739957 ], [ 93.473589, 26.740207 ], [ 93.472924, 26.740705 ], [ 93.472173, 26.741031 ], [ 93.471594, 26.741280 ], [ 93.471100, 26.741529 ], [ 93.470650, 26.741720 ], [ 93.470178, 26.741912 ], [ 93.469727, 26.742180 ], [ 93.468890, 26.742487 ], [ 93.468375, 26.742889 ], [ 93.467817, 26.743253 ], [ 93.467367, 26.743541 ], [ 93.466852, 26.743809 ], [ 93.466337, 26.744173 ], [ 93.465886, 26.744518 ], [ 93.465350, 26.744806 ], [ 93.464792, 26.744997 ], [ 93.464363, 26.745131 ], [ 93.463976, 26.745419 ], [ 93.463569, 26.745572 ], [ 93.462925, 26.745802 ], [ 93.462217, 26.746032 ], [ 93.461702, 26.746070 ], [ 93.461359, 26.746224 ], [ 93.460886, 26.746262 ], [ 93.460414, 26.746243 ], [ 93.460050, 26.746070 ], [ 93.459642, 26.745725 ], [ 93.459213, 26.745380 ], [ 93.458827, 26.744997 ], [ 93.458505, 26.744633 ], [ 93.458118, 26.744288 ], [ 93.457625, 26.743982 ], [ 93.457153, 26.743790 ], [ 93.456509, 26.743445 ], [ 93.456080, 26.743253 ], [ 93.455501, 26.743062 ], [ 93.454878, 26.742813 ], [ 93.454149, 26.742391 ], [ 93.453290, 26.741950 ], [ 93.452668, 26.741740 ], [ 93.452024, 26.741471 ], [ 93.451166, 26.741031 ], [ 93.450716, 26.740858 ], [ 93.450308, 26.740628 ], [ 93.449750, 26.740283 ], [ 93.449171, 26.740034 ], [ 93.448505, 26.739708 ], [ 93.447883, 26.739440 ], [ 93.447111, 26.739018 ], [ 93.446746, 26.738827 ], [ 93.446317, 26.738501 ], [ 93.445544, 26.738060 ], [ 93.445051, 26.737754 ], [ 93.444579, 26.737390 ], [ 93.443871, 26.737045 ], [ 93.443291, 26.736681 ], [ 93.442841, 26.736393 ], [ 93.442433, 26.736182 ], [ 93.441811, 26.735742 ], [ 93.441274, 26.735473 ], [ 93.440437, 26.734975 ], [ 93.440030, 26.734707 ], [ 93.439665, 26.734400 ], [ 93.439257, 26.734093 ], [ 93.438914, 26.733825 ], [ 93.438399, 26.733499 ], [ 93.437948, 26.733154 ], [ 93.437283, 26.732522 ], [ 93.436811, 26.732139 ], [ 93.436275, 26.731564 ], [ 93.435545, 26.731008 ], [ 93.435137, 26.730625 ], [ 93.434451, 26.730088 ], [ 93.433871, 26.729762 ], [ 93.433249, 26.729341 ], [ 93.432627, 26.728996 ], [ 93.431747, 26.728497 ], [ 93.431168, 26.728095 ], [ 93.430717, 26.727731 ], [ 93.430116, 26.727443 ], [ 93.429408, 26.727194 ], [ 93.428679, 26.727022 ], [ 93.427906, 26.726849 ], [ 93.427198, 26.726600 ], [ 93.425996, 26.726389 ], [ 93.425224, 26.726236 ], [ 93.424451, 26.726063 ], [ 93.423722, 26.725891 ], [ 93.422606, 26.725565 ], [ 93.421984, 26.725412 ], [ 93.420846, 26.725144 ], [ 93.420095, 26.724971 ], [ 93.419087, 26.724837 ], [ 93.418508, 26.724703 ], [ 93.417971, 26.724626 ], [ 93.417413, 26.724492 ], [ 93.416405, 26.724281 ], [ 93.415654, 26.724185 ], [ 93.415031, 26.724147 ], [ 93.414195, 26.724147 ], [ 93.413014, 26.724166 ], [ 93.412263, 26.724128 ], [ 93.410976, 26.723936 ], [ 93.410311, 26.723955 ], [ 93.409774, 26.723955 ], [ 93.408251, 26.723898 ], [ 93.406920, 26.723687 ], [ 93.405676, 26.723534 ], [ 93.404667, 26.723342 ], [ 93.404281, 26.723112 ], [ 93.403616, 26.722556 ], [ 93.402972, 26.722077 ], [ 93.402479, 26.721828 ], [ 93.401663, 26.721540 ], [ 93.401084, 26.721272 ], [ 93.400183, 26.720965 ], [ 93.399453, 26.720870 ], [ 93.398809, 26.720640 ], [ 93.398058, 26.720582 ], [ 93.397372, 26.720563 ], [ 93.396642, 26.720582 ], [ 93.395934, 26.720678 ], [ 93.395162, 26.720774 ], [ 93.394303, 26.721004 ], [ 93.393488, 26.721310 ], [ 93.393016, 26.721253 ], [ 93.392308, 26.721061 ], [ 93.390892, 26.720735 ], [ 93.390055, 26.720429 ], [ 93.388445, 26.719854 ], [ 93.387394, 26.719355 ], [ 93.387072, 26.718991 ], [ 93.386536, 26.718857 ], [ 93.385763, 26.718685 ], [ 93.385034, 26.718455 ], [ 93.384433, 26.718244 ], [ 93.383982, 26.718052 ], [ 93.383703, 26.717669 ], [ 93.383489, 26.717228 ], [ 93.383145, 26.716960 ], [ 93.382673, 26.716576 ], [ 93.382459, 26.716059 ], [ 93.382180, 26.715465 ], [ 93.381836, 26.714698 ], [ 93.381343, 26.714142 ], [ 93.380764, 26.713203 ], [ 93.380399, 26.712398 ], [ 93.379991, 26.711938 ], [ 93.379712, 26.711286 ], [ 93.379347, 26.710347 ], [ 93.379068, 26.709868 ], [ 93.378811, 26.709350 ], [ 93.378146, 26.707970 ], [ 93.377717, 26.707165 ], [ 93.377395, 26.706360 ], [ 93.377030, 26.705574 ], [ 93.376794, 26.704865 ], [ 93.376622, 26.704175 ], [ 93.376257, 26.703504 ], [ 93.375957, 26.702833 ], [ 93.375764, 26.702334 ], [ 93.375506, 26.701913 ], [ 93.375077, 26.701644 ], [ 93.374605, 26.701261 ], [ 93.373854, 26.700379 ], [ 93.373361, 26.699727 ], [ 93.372674, 26.699286 ], [ 93.372438, 26.698865 ], [ 93.371944, 26.698098 ], [ 93.371022, 26.697599 ], [ 93.370121, 26.697235 ], [ 93.368855, 26.696660 ], [ 93.367953, 26.696296 ], [ 93.366902, 26.695932 ], [ 93.365743, 26.695452 ], [ 93.364863, 26.695203 ], [ 93.363769, 26.695107 ], [ 93.362460, 26.694935 ], [ 93.361323, 26.694743 ], [ 93.360014, 26.694417 ], [ 93.358963, 26.694206 ], [ 93.357933, 26.693976 ], [ 93.357182, 26.693823 ], [ 93.356688, 26.693650 ], [ 93.356087, 26.693670 ], [ 93.355486, 26.693305 ], [ 93.354821, 26.693171 ], [ 93.354263, 26.693075 ], [ 93.353405, 26.692979 ], [ 93.352439, 26.692807 ], [ 93.351259, 26.692845 ], [ 93.350444, 26.692711 ], [ 93.349929, 26.692692 ], [ 93.348706, 26.692385 ], [ 93.348041, 26.692098 ], [ 93.346539, 26.691350 ], [ 93.345530, 26.690775 ], [ 93.344457, 26.690046 ], [ 93.343213, 26.689222 ], [ 93.341904, 26.688110 ], [ 93.340552, 26.687401 ], [ 93.339372, 26.686672 ], [ 93.337591, 26.685924 ], [ 93.336132, 26.685311 ], [ 93.334436, 26.684736 ], [ 93.333256, 26.684467 ], [ 93.332398, 26.684237 ], [ 93.331325, 26.683815 ], [ 93.330402, 26.683470 ], [ 93.329759, 26.683240 ], [ 93.328471, 26.682723 ], [ 93.327634, 26.682339 ], [ 93.326497, 26.682013 ], [ 93.325660, 26.681917 ], [ 93.324716, 26.681841 ], [ 93.323858, 26.681706 ], [ 93.323064, 26.681515 ], [ 93.322291, 26.681265 ], [ 93.321068, 26.681131 ], [ 93.319910, 26.681016 ], [ 93.319008, 26.680920 ], [ 93.317571, 26.680805 ], [ 93.316176, 26.680729 ], [ 93.315146, 26.680690 ], [ 93.314030, 26.680498 ], [ 93.313150, 26.680345 ], [ 93.310919, 26.679847 ], [ 93.309631, 26.679559 ], [ 93.308623, 26.679310 ], [ 93.307142, 26.679003 ], [ 93.305812, 26.678735 ], [ 93.304567, 26.678485 ], [ 93.303151, 26.678428 ], [ 93.301756, 26.678332 ], [ 93.300920, 26.678389 ], [ 93.300211, 26.678351 ], [ 93.298752, 26.678236 ], [ 93.297486, 26.678063 ], [ 93.295877, 26.677565 ], [ 93.294117, 26.677028 ], [ 93.292766, 26.676472 ], [ 93.291371, 26.675782 ], [ 93.289676, 26.675015 ], [ 93.288689, 26.674536 ], [ 93.287873, 26.674152 ], [ 93.287251, 26.673864 ], [ 93.286436, 26.673519 ], [ 93.285255, 26.673174 ], [ 93.283775, 26.672637 ], [ 93.282359, 26.671947 ], [ 93.280878, 26.671353 ], [ 93.279204, 26.670720 ], [ 93.278368, 26.670317 ], [ 93.276393, 26.669474 ], [ 93.275406, 26.668956 ], [ 93.274376, 26.668457 ], [ 93.273218, 26.668016 ], [ 93.271995, 26.667594 ], [ 93.271115, 26.667268 ], [ 93.270342, 26.666923 ], [ 93.269935, 26.666712 ], [ 93.269398, 26.666463 ], [ 93.268840, 26.666099 ], [ 93.267918, 26.665159 ], [ 93.267424, 26.664335 ], [ 93.267038, 26.663663 ], [ 93.266888, 26.662992 ], [ 93.266866, 26.662436 ], [ 93.267016, 26.661669 ], [ 93.267231, 26.661151 ], [ 93.267381, 26.660768 ], [ 93.267295, 26.660365 ], [ 93.267124, 26.659751 ], [ 93.267102, 26.659215 ], [ 93.266845, 26.658678 ], [ 93.266480, 26.658102 ], [ 93.266222, 26.657412 ], [ 93.265836, 26.656587 ], [ 93.265643, 26.656165 ], [ 93.265257, 26.655744 ], [ 93.264570, 26.655283 ], [ 93.263841, 26.654881 ], [ 93.263326, 26.654612 ], [ 93.262231, 26.653998 ], [ 93.260858, 26.653193 ], [ 93.260000, 26.652694 ], [ 93.259377, 26.652330 ], [ 93.258734, 26.652100 ], [ 93.258026, 26.651640 ], [ 93.256974, 26.651198 ], [ 93.256524, 26.650872 ], [ 93.255966, 26.650719 ], [ 93.255279, 26.650393 ], [ 93.254528, 26.649933 ], [ 93.253670, 26.649472 ], [ 93.253047, 26.649127 ], [ 93.252146, 26.648533 ], [ 93.251395, 26.647919 ], [ 93.250644, 26.647574 ], [ 93.249958, 26.647209 ], [ 93.248971, 26.646768 ], [ 93.247597, 26.645924 ], [ 93.246417, 26.645272 ], [ 93.245494, 26.644755 ], [ 93.244379, 26.643891 ], [ 93.243434, 26.643163 ], [ 93.242598, 26.642722 ], [ 93.241782, 26.642319 ], [ 93.241138, 26.641916 ], [ 93.239851, 26.641360 ], [ 93.238392, 26.640516 ], [ 93.237448, 26.640036 ], [ 93.236589, 26.639519 ], [ 93.235795, 26.639058 ], [ 93.235281, 26.638694 ], [ 93.234787, 26.637888 ], [ 93.234658, 26.637428 ], [ 93.234422, 26.637006 ], [ 93.234358, 26.636757 ], [ 93.234358, 26.636411 ], [ 93.234615, 26.635798 ], [ 93.234723, 26.635241 ], [ 93.234916, 26.634551 ], [ 93.234766, 26.633304 ], [ 93.234100, 26.632479 ], [ 93.233113, 26.631866 ], [ 93.231483, 26.631156 ], [ 93.229787, 26.630830 ], [ 93.228672, 26.630600 ], [ 93.227577, 26.630235 ], [ 93.225474, 26.629813 ], [ 93.223929, 26.629545 ], [ 93.222213, 26.629391 ], [ 93.220346, 26.629276 ], [ 93.218286, 26.629084 ], [ 93.216205, 26.628931 ], [ 93.215089, 26.628988 ], [ 93.213780, 26.628912 ], [ 93.212643, 26.628816 ], [ 93.211677, 26.628816 ], [ 93.210604, 26.628854 ], [ 93.209596, 26.629046 ], [ 93.208652, 26.629065 ], [ 93.207493, 26.629103 ], [ 93.206892, 26.629027 ], [ 93.206270, 26.628816 ], [ 93.205047, 26.628509 ], [ 93.203652, 26.627876 ], [ 93.202708, 26.627454 ], [ 93.201656, 26.626955 ], [ 93.200455, 26.626495 ], [ 93.199060, 26.625958 ], [ 93.198159, 26.625420 ], [ 93.196721, 26.624653 ], [ 93.195047, 26.623694 ], [ 93.193309, 26.622716 ], [ 93.192279, 26.622236 ], [ 93.191206, 26.621891 ], [ 93.190262, 26.621584 ], [ 93.188782, 26.621373 ], [ 93.187881, 26.621200 ], [ 93.186443, 26.621028 ], [ 93.185499, 26.620855 ], [ 93.184297, 26.620682 ], [ 93.182709, 26.620337 ], [ 93.181636, 26.619953 ], [ 93.178804, 26.619224 ], [ 93.177752, 26.618802 ], [ 93.176057, 26.618208 ], [ 93.174684, 26.617709 ], [ 93.173418, 26.617229 ], [ 93.171380, 26.616424 ], [ 93.169878, 26.615963 ], [ 93.169127, 26.615599 ], [ 93.168333, 26.615196 ], [ 93.167539, 26.614640 ], [ 93.166616, 26.614064 ], [ 93.165607, 26.613335 ], [ 93.164685, 26.612702 ], [ 93.164020, 26.611935 ], [ 93.163247, 26.610803 ], [ 93.162711, 26.610016 ], [ 93.162324, 26.609153 ], [ 93.161917, 26.608136 ], [ 93.161595, 26.607100 ], [ 93.161230, 26.605987 ], [ 93.160887, 26.605124 ], [ 93.160415, 26.604165 ], [ 93.159878, 26.603129 ], [ 93.159449, 26.602323 ], [ 93.159106, 26.601268 ], [ 93.158805, 26.600212 ], [ 93.158548, 26.599387 ], [ 93.158333, 26.598466 ], [ 93.158205, 26.597507 ], [ 93.158140, 26.596759 ], [ 93.158097, 26.595703 ], [ 93.157840, 26.594284 ], [ 93.157582, 26.593190 ], [ 93.157089, 26.592307 ], [ 93.156660, 26.591501 ], [ 93.155951, 26.590753 ], [ 93.155050, 26.589909 ], [ 93.154407, 26.589237 ], [ 93.153784, 26.588719 ], [ 93.152497, 26.587894 ], [ 93.151510, 26.587453 ], [ 93.150415, 26.587299 ], [ 93.149729, 26.587107 ], [ 93.148828, 26.586992 ], [ 93.147905, 26.587126 ], [ 93.146274, 26.587146 ], [ 93.145072, 26.587261 ], [ 93.143678, 26.587568 ], [ 93.142519, 26.587587 ], [ 93.141446, 26.587798 ], [ 93.139708, 26.588738 ], [ 93.139086, 26.589007 ], [ 93.138270, 26.589064 ], [ 93.137112, 26.589295 ], [ 93.135781, 26.589563 ], [ 93.134344, 26.589774 ], [ 93.132992, 26.589794 ], [ 93.131554, 26.589755 ], [ 93.130846, 26.589640 ], [ 93.129752, 26.589563 ], [ 93.128936, 26.589525 ], [ 93.128271, 26.589698 ], [ 93.127649, 26.589909 ], [ 93.126662, 26.590177 ], [ 93.125246, 26.589794 ], [ 93.123379, 26.589218 ], [ 93.122113, 26.588604 ], [ 93.120375, 26.587625 ], [ 93.118722, 26.586148 ], [ 93.116941, 26.584920 ], [ 93.115396, 26.583979 ], [ 93.116577, 26.583883 ], [ 93.117735, 26.584171 ], [ 93.118615, 26.584862 ], [ 93.119624, 26.585438 ], [ 93.120611, 26.585822 ], [ 93.121555, 26.585994 ], [ 93.122606, 26.586052 ], [ 93.123851, 26.585917 ], [ 93.124838, 26.585726 ], [ 93.126018, 26.585188 ], [ 93.127348, 26.584555 ], [ 93.128786, 26.583768 ], [ 93.130331, 26.583020 ], [ 93.131683, 26.582655 ], [ 93.135159, 26.581849 ], [ 93.136876, 26.581581 ], [ 93.138571, 26.581408 ], [ 93.139515, 26.581523 ], [ 93.140652, 26.581869 ], [ 93.141661, 26.582463 ], [ 93.142776, 26.583404 ], [ 93.143356, 26.583903 ], [ 93.143785, 26.584171 ], [ 93.144622, 26.584286 ], [ 93.145630, 26.584248 ], [ 93.146682, 26.584517 ], [ 93.147991, 26.584805 ], [ 93.149536, 26.585303 ], [ 93.151231, 26.585879 ], [ 93.152905, 26.586915 ], [ 93.153570, 26.587721 ], [ 93.154428, 26.588757 ], [ 93.155029, 26.589410 ], [ 93.155737, 26.589985 ], [ 93.156617, 26.590542 ], [ 93.157818, 26.591118 ], [ 93.158805, 26.591578 ], [ 93.159621, 26.591732 ], [ 93.161423, 26.592039 ], [ 93.163526, 26.592787 ], [ 93.165071, 26.593650 ], [ 93.166680, 26.594226 ], [ 93.167710, 26.594552 ], [ 93.168783, 26.594955 ], [ 93.169577, 26.595089 ], [ 93.170800, 26.594993 ], [ 93.171594, 26.595224 ], [ 93.172131, 26.595224 ], [ 93.172967, 26.594974 ], [ 93.173697, 26.594840 ], [ 93.174512, 26.595013 ], [ 93.174984, 26.595128 ], [ 93.175757, 26.594936 ], [ 93.176422, 26.594418 ], [ 93.176680, 26.594015 ], [ 93.176787, 26.593305 ], [ 93.176508, 26.592902 ], [ 93.176036, 26.592403 ], [ 93.175285, 26.591808 ], [ 93.174641, 26.590945 ], [ 93.174148, 26.590446 ], [ 93.173954, 26.589736 ], [ 93.174040, 26.588949 ], [ 93.174491, 26.587875 ], [ 93.175156, 26.586762 ], [ 93.175843, 26.585841 ], [ 93.176701, 26.584881 ], [ 93.177881, 26.583826 ], [ 93.178761, 26.583135 ], [ 93.179576, 26.582483 ], [ 93.180263, 26.582041 ], [ 93.181143, 26.581581 ], [ 93.181915, 26.581427 ], [ 93.182752, 26.581350 ], [ 93.183825, 26.581235 ], [ 93.184640, 26.581120 ], [ 93.185198, 26.581043 ], [ 93.185949, 26.580813 ], [ 93.186786, 26.580832 ], [ 93.187902, 26.580756 ], [ 93.188803, 26.580429 ], [ 93.189662, 26.579777 ], [ 93.190391, 26.579374 ], [ 93.190885, 26.579393 ], [ 93.191593, 26.579662 ], [ 93.192151, 26.579758 ], [ 93.192816, 26.579604 ], [ 93.193588, 26.579527 ], [ 93.194125, 26.579700 ], [ 93.194661, 26.580084 ], [ 93.195283, 26.580468 ], [ 93.195734, 26.580698 ], [ 93.196399, 26.580736 ], [ 93.197258, 26.580852 ], [ 93.197665, 26.581139 ], [ 93.197536, 26.581677 ], [ 93.197129, 26.582483 ], [ 93.196635, 26.583020 ], [ 93.196228, 26.583692 ], [ 93.195884, 26.584095 ], [ 93.195477, 26.584248 ], [ 93.195047, 26.584248 ], [ 93.194768, 26.583941 ], [ 93.194253, 26.583135 ], [ 93.193781, 26.582866 ], [ 93.193395, 26.582962 ], [ 93.192987, 26.583538 ], [ 93.192794, 26.584018 ], [ 93.192794, 26.584670 ], [ 93.192708, 26.585227 ], [ 93.192430, 26.585917 ], [ 93.192108, 26.586378 ], [ 93.191636, 26.587126 ], [ 93.191464, 26.587779 ], [ 93.191314, 26.588777 ], [ 93.191378, 26.589621 ], [ 93.191507, 26.590254 ], [ 93.192108, 26.590830 ], [ 93.192558, 26.591002 ], [ 93.193417, 26.591137 ], [ 93.194103, 26.591098 ], [ 93.194919, 26.590983 ], [ 93.195970, 26.590695 ], [ 93.196957, 26.590369 ], [ 93.197579, 26.590062 ], [ 93.198051, 26.589851 ], [ 93.198373, 26.589467 ], [ 93.198609, 26.589007 ], [ 93.198738, 26.588623 ], [ 93.199039, 26.588201 ], [ 93.199511, 26.587990 ], [ 93.200111, 26.587990 ], [ 93.201013, 26.587875 ], [ 93.201807, 26.587683 ], [ 93.202772, 26.587318 ], [ 93.203630, 26.586743 ], [ 93.204017, 26.586359 ], [ 93.204381, 26.585802 ], [ 93.204811, 26.585342 ], [ 93.205304, 26.585035 ], [ 93.205948, 26.584747 ], [ 93.206956, 26.584421 ], [ 93.207901, 26.584152 ], [ 93.209360, 26.583749 ], [ 93.210390, 26.583480 ], [ 93.211548, 26.583289 ], [ 93.212514, 26.583097 ], [ 93.213973, 26.582866 ], [ 93.215110, 26.582943 ], [ 93.215797, 26.583058 ], [ 93.216569, 26.583461 ], [ 93.217256, 26.584037 ], [ 93.217900, 26.584574 ], [ 93.218737, 26.584958 ], [ 93.219531, 26.585265 ], [ 93.220196, 26.585380 ], [ 93.221333, 26.585361 ], [ 93.222191, 26.585188 ], [ 93.222792, 26.584843 ], [ 93.223307, 26.584536 ], [ 93.224123, 26.584363 ], [ 93.225324, 26.584114 ], [ 93.226440, 26.583826 ], [ 93.227599, 26.583404 ], [ 93.228350, 26.583020 ], [ 93.228929, 26.582770 ], [ 93.229787, 26.582060 ], [ 93.231268, 26.581350 ], [ 93.232148, 26.581178 ], [ 93.233542, 26.580890 ], [ 93.234873, 26.580775 ], [ 93.236160, 26.580852 ], [ 93.237040, 26.581005 ], [ 93.238049, 26.581255 ], [ 93.238907, 26.581581 ], [ 93.239765, 26.581696 ], [ 93.241074, 26.581657 ], [ 93.242340, 26.581888 ], [ 93.243456, 26.582060 ], [ 93.244121, 26.582310 ], [ 93.245001, 26.582598 ], [ 93.246224, 26.582847 ], [ 93.247125, 26.582943 ], [ 93.248370, 26.582828 ], [ 93.250601, 26.582521 ], [ 93.252189, 26.582272 ], [ 93.253713, 26.582041 ], [ 93.254764, 26.581792 ], [ 93.255193, 26.581562 ], [ 93.254850, 26.581255 ], [ 93.254099, 26.581293 ], [ 93.253176, 26.581581 ], [ 93.252511, 26.581638 ], [ 93.251717, 26.581792 ], [ 93.251245, 26.581926 ], [ 93.251009, 26.581753 ], [ 93.251503, 26.581427 ], [ 93.252146, 26.580928 ], [ 93.252747, 26.580583 ], [ 93.253326, 26.580333 ], [ 93.254056, 26.580410 ], [ 93.255365, 26.580372 ], [ 93.256588, 26.580314 ], [ 93.257747, 26.580333 ], [ 93.259184, 26.580564 ], [ 93.260407, 26.580756 ], [ 93.261266, 26.580852 ], [ 93.261974, 26.580832 ], [ 93.263519, 26.581139 ], [ 93.264334, 26.581427 ], [ 93.265278, 26.581773 ], [ 93.266673, 26.582060 ], [ 93.268733, 26.582636 ], [ 93.269935, 26.583001 ], [ 93.271351, 26.583423 ], [ 93.272510, 26.583711 ], [ 93.273475, 26.583768 ], [ 93.274891, 26.583922 ], [ 93.276007, 26.583979 ], [ 93.276544, 26.583634 ], [ 93.277187, 26.583500 ], [ 93.278604, 26.583346 ], [ 93.279977, 26.583269 ], [ 93.281114, 26.583327 ], [ 93.281972, 26.583461 ], [ 93.283582, 26.583634 ], [ 93.284934, 26.583730 ], [ 93.286178, 26.583730 ], [ 93.287251, 26.583653 ], [ 93.288581, 26.583500 ], [ 93.289890, 26.583154 ], [ 93.291264, 26.582982 ], [ 93.292122, 26.582886 ], [ 93.292937, 26.582828 ], [ 93.293967, 26.582751 ], [ 93.294997, 26.582982 ], [ 93.296113, 26.583576 ], [ 93.296885, 26.583979 ], [ 93.297637, 26.584267 ], [ 93.298559, 26.584574 ], [ 93.299289, 26.584766 ], [ 93.300233, 26.585035 ], [ 93.301091, 26.585399 ], [ 93.302507, 26.585917 ], [ 93.304417, 26.586589 ], [ 93.305275, 26.587146 ], [ 93.306262, 26.587856 ], [ 93.307164, 26.588470 ], [ 93.308151, 26.588930 ], [ 93.308730, 26.589160 ], [ 93.309975, 26.589525 ], [ 93.311369, 26.589813 ], [ 93.312635, 26.589909 ], [ 93.314137, 26.589928 ], [ 93.315146, 26.589985 ], [ 93.316348, 26.589985 ], [ 93.317807, 26.589966 ], [ 93.319502, 26.589947 ], [ 93.320789, 26.589985 ], [ 93.321905, 26.589909 ], [ 93.322849, 26.589832 ], [ 93.323708, 26.589640 ], [ 93.324738, 26.589256 ], [ 93.326304, 26.588604 ], [ 93.327205, 26.588470 ], [ 93.328063, 26.588105 ], [ 93.328836, 26.587683 ], [ 93.329587, 26.587491 ], [ 93.330510, 26.587299 ], [ 93.331776, 26.587030 ], [ 93.332720, 26.586800 ], [ 93.333728, 26.586455 ], [ 93.334565, 26.586090 ], [ 93.336775, 26.585841 ], [ 93.337634, 26.586167 ], [ 93.337891, 26.586743 ], [ 93.338342, 26.587030 ], [ 93.338964, 26.587318 ], [ 93.339694, 26.587510 ], [ 93.340015, 26.588028 ], [ 93.339758, 26.588681 ], [ 93.339114, 26.588796 ], [ 93.338664, 26.589122 ], [ 93.338363, 26.589832 ], [ 93.338277, 26.590388 ], [ 93.338406, 26.591290 ], [ 93.338599, 26.592096 ], [ 93.338792, 26.592633 ], [ 93.339329, 26.593420 ], [ 93.339393, 26.593957 ], [ 93.339522, 26.594437 ], [ 93.339822, 26.594917 ], [ 93.340294, 26.595377 ], [ 93.340809, 26.595684 ], [ 93.341453, 26.595953 ], [ 93.341646, 26.596567 ], [ 93.341668, 26.597008 ], [ 93.342140, 26.597258 ], [ 93.342676, 26.597315 ], [ 93.343213, 26.596989 ], [ 93.343406, 26.596471 ], [ 93.343492, 26.596145 ], [ 93.343856, 26.596010 ], [ 93.344522, 26.596125 ], [ 93.344929, 26.596644 ], [ 93.344843, 26.597027 ], [ 93.344457, 26.597334 ], [ 93.344007, 26.597737 ], [ 93.344049, 26.598083 ], [ 93.344414, 26.598179 ], [ 93.345315, 26.598025 ], [ 93.345830, 26.597967 ], [ 93.346174, 26.598102 ], [ 93.346603, 26.598063 ], [ 93.346903, 26.597737 ], [ 93.347182, 26.597488 ], [ 93.347547, 26.597603 ], [ 93.347633, 26.597929 ], [ 93.347311, 26.598313 ], [ 93.346817, 26.598716 ], [ 93.346388, 26.599253 ], [ 93.346367, 26.599733 ], [ 93.346581, 26.600136 ], [ 93.347075, 26.600385 ], [ 93.347375, 26.600673 ], [ 93.347311, 26.600980 ], [ 93.347096, 26.601479 ], [ 93.347311, 26.601862 ], [ 93.347847, 26.601997 ], [ 93.348234, 26.601594 ], [ 93.348298, 26.600980 ], [ 93.348556, 26.600596 ], [ 93.348877, 26.600251 ], [ 93.349414, 26.600097 ], [ 93.349886, 26.599886 ], [ 93.350122, 26.599541 ], [ 93.350186, 26.599119 ], [ 93.350444, 26.599004 ], [ 93.351002, 26.599330 ], [ 93.351324, 26.599809 ], [ 93.351581, 26.600212 ], [ 93.351409, 26.600577 ], [ 93.350787, 26.600654 ], [ 93.350422, 26.600865 ], [ 93.350122, 26.601306 ], [ 93.349950, 26.601920 ], [ 93.350015, 26.602419 ], [ 93.350251, 26.602726 ], [ 93.350508, 26.603205 ], [ 93.350594, 26.603647 ], [ 93.351002, 26.604011 ], [ 93.351431, 26.604126 ], [ 93.352096, 26.604241 ], [ 93.352761, 26.604184 ], [ 93.354092, 26.604126 ], [ 93.354521, 26.603973 ], [ 93.355143, 26.603858 ], [ 93.355701, 26.603762 ], [ 93.356559, 26.603608 ], [ 93.357160, 26.603493 ], [ 93.357718, 26.603167 ], [ 93.358297, 26.602706 ], [ 93.358920, 26.602112 ], [ 93.360422, 26.600807 ], [ 93.360872, 26.600136 ], [ 93.361280, 26.599560 ], [ 93.361967, 26.599099 ], [ 93.362653, 26.598658 ], [ 93.363383, 26.598274 ], [ 93.364005, 26.597833 ], [ 93.364627, 26.597545 ], [ 93.365121, 26.597488 ], [ 93.365893, 26.597392 ], [ 93.366365, 26.597219 ], [ 93.366752, 26.596874 ], [ 93.367138, 26.596471 ], [ 93.367438, 26.596202 ], [ 93.368018, 26.596068 ], [ 93.368554, 26.595895 ], [ 93.369069, 26.595684 ], [ 93.369455, 26.595262 ], [ 93.370163, 26.594552 ], [ 93.370678, 26.594379 ], [ 93.371172, 26.594322 ], [ 93.372073, 26.594418 ], [ 93.372910, 26.594591 ], [ 93.373597, 26.594533 ], [ 93.374004, 26.594495 ], [ 93.374691, 26.594917 ], [ 93.374648, 26.595281 ], [ 93.374798, 26.595646 ], [ 93.375442, 26.595972 ], [ 93.376000, 26.596337 ], [ 93.376558, 26.596548 ], [ 93.377159, 26.596835 ], [ 93.377674, 26.596970 ], [ 93.379133, 26.597085 ], [ 93.379519, 26.597334 ], [ 93.379819, 26.597507 ], [ 93.380034, 26.597776 ], [ 93.380506, 26.597603 ], [ 93.380742, 26.597315 ], [ 93.381150, 26.597296 ], [ 93.381944, 26.597507 ], [ 93.382587, 26.597660 ], [ 93.383231, 26.597776 ], [ 93.383961, 26.598006 ], [ 93.385141, 26.598370 ], [ 93.385634, 26.598620 ], [ 93.386579, 26.598965 ], [ 93.387158, 26.599157 ], [ 93.387887, 26.599579 ], [ 93.388510, 26.600040 ], [ 93.389153, 26.600500 ], [ 93.390141, 26.601133 ], [ 93.390999, 26.601613 ], [ 93.391857, 26.602208 ], [ 93.392522, 26.602668 ], [ 93.392930, 26.603052 ], [ 93.393445, 26.603666 ], [ 93.393660, 26.603896 ], [ 93.394153, 26.604126 ], [ 93.394732, 26.604222 ], [ 93.395226, 26.604050 ], [ 93.395591, 26.603723 ], [ 93.396106, 26.603666 ], [ 93.396449, 26.603359 ], [ 93.396728, 26.603186 ], [ 93.397114, 26.603052 ], [ 93.397264, 26.602908 ], [ 93.397543, 26.602745 ], [ 93.397726, 26.602745 ], [ 93.398252, 26.602726 ], [ 93.398799, 26.602659 ], [ 93.399367, 26.602735 ], [ 93.399721, 26.602783 ], [ 93.399979, 26.602793 ], [ 93.400247, 26.602774 ], [ 93.400666, 26.602889 ], [ 93.401095, 26.602975 ], [ 93.401384, 26.603119 ], [ 93.401932, 26.602966 ], [ 93.402425, 26.602706 ], [ 93.402822, 26.602428 ], [ 93.403004, 26.602284 ], [ 93.403326, 26.602236 ], [ 93.403541, 26.602428 ], [ 93.403680, 26.602783 ], [ 93.403541, 26.603129 ], [ 93.403348, 26.603647 ], [ 93.403230, 26.604213 ], [ 93.403176, 26.604539 ], [ 93.403219, 26.604807 ], [ 93.403401, 26.605047 ], [ 93.403573, 26.605249 ], [ 93.403745, 26.605488 ], [ 93.403691, 26.605699 ], [ 93.403552, 26.605901 ], [ 93.403498, 26.606160 ], [ 93.403691, 26.606265 ], [ 93.404002, 26.606208 ], [ 93.404238, 26.606006 ], [ 93.404410, 26.605911 ], [ 93.404657, 26.605930 ], [ 93.404839, 26.606045 ], [ 93.405043, 26.606016 ], [ 93.405300, 26.606016 ], [ 93.405418, 26.606141 ], [ 93.405429, 26.606409 ], [ 93.405333, 26.606735 ], [ 93.405215, 26.606899 ], [ 93.404957, 26.607042 ], [ 93.404700, 26.607119 ], [ 93.404517, 26.607292 ], [ 93.404464, 26.607512 ], [ 93.404378, 26.607685 ], [ 93.404195, 26.607819 ], [ 93.403927, 26.608002 ], [ 93.403970, 26.608194 ], [ 93.404099, 26.608357 ], [ 93.404367, 26.608443 ], [ 93.404753, 26.608501 ], [ 93.405000, 26.608625 ], [ 93.405139, 26.608769 ], [ 93.405354, 26.608702 ], [ 93.405418, 26.608453 ], [ 93.405493, 26.608213 ], [ 93.405740, 26.608107 ], [ 93.406062, 26.608155 ], [ 93.406255, 26.608357 ], [ 93.406481, 26.608587 ], [ 93.406792, 26.608644 ], [ 93.407081, 26.608731 ], [ 93.407274, 26.608923 ], [ 93.407468, 26.609124 ], [ 93.407693, 26.609249 ], [ 93.408165, 26.609412 ], [ 93.408455, 26.609517 ], [ 93.408701, 26.609517 ], [ 93.408787, 26.609402 ], [ 93.408723, 26.609114 ], [ 93.408723, 26.608932 ], [ 93.408777, 26.608769 ], [ 93.409098, 26.608692 ], [ 93.409431, 26.608855 ], [ 93.409613, 26.608980 ], [ 93.409849, 26.608971 ], [ 93.409925, 26.608807 ], [ 93.409946, 26.608654 ], [ 93.410107, 26.608596 ], [ 93.410321, 26.608673 ], [ 93.410600, 26.608616 ], [ 93.410708, 26.608462 ], [ 93.410922, 26.608347 ], [ 93.411105, 26.608280 ], [ 93.411384, 26.608357 ], [ 93.411641, 26.608606 ], [ 93.411824, 26.608760 ], [ 93.412178, 26.608798 ], [ 93.412532, 26.608827 ], [ 93.412961, 26.608942 ], [ 93.413261, 26.609028 ], [ 93.413454, 26.609114 ], [ 93.413647, 26.609086 ], [ 93.413873, 26.609086 ], [ 93.414130, 26.609191 ], [ 93.414345, 26.609316 ], [ 93.414549, 26.609383 ], [ 93.414795, 26.609421 ], [ 93.414967, 26.609623 ], [ 93.414946, 26.609815 ], [ 93.414913, 26.610064 ], [ 93.415074, 26.610179 ], [ 93.415450, 26.610093 ], [ 93.415600, 26.609930 ], [ 93.415686, 26.609728 ], [ 93.415815, 26.609556 ], [ 93.415997, 26.609527 ], [ 93.416276, 26.609632 ], [ 93.416458, 26.609623 ], [ 93.416523, 26.609431 ], [ 93.416716, 26.609373 ], [ 93.416984, 26.609537 ], [ 93.417295, 26.609642 ], [ 93.417628, 26.609652 ], [ 93.417896, 26.609690 ], [ 93.418121, 26.609652 ], [ 93.418400, 26.609671 ], [ 93.418722, 26.609786 ], [ 93.418969, 26.609911 ], [ 93.419130, 26.609843 ], [ 93.419377, 26.609748 ], [ 93.419570, 26.609834 ], [ 93.419784, 26.610016 ], [ 93.420010, 26.610131 ], [ 93.420160, 26.610131 ], [ 93.420407, 26.610141 ], [ 93.420750, 26.610333 ], [ 93.420943, 26.610505 ], [ 93.421158, 26.610429 ], [ 93.421319, 26.610227 ], [ 93.421587, 26.610266 ], [ 93.421683, 26.610457 ], [ 93.421662, 26.610688 ], [ 93.421726, 26.610831 ], [ 93.421984, 26.610716 ], [ 93.422080, 26.610544 ], [ 93.422348, 26.610553 ], [ 93.422810, 26.610678 ], [ 93.422960, 26.610879 ], [ 93.423014, 26.611158 ], [ 93.423035, 26.611330 ], [ 93.423239, 26.611234 ], [ 93.423432, 26.610966 ], [ 93.423550, 26.611158 ], [ 93.423486, 26.611388 ], [ 93.423539, 26.611580 ], [ 93.423808, 26.611666 ], [ 93.424151, 26.611800 ], [ 93.424237, 26.612117 ], [ 93.424387, 26.612385 ], [ 93.424634, 26.612481 ], [ 93.424773, 26.612328 ], [ 93.424655, 26.612031 ], [ 93.424623, 26.611810 ], [ 93.424677, 26.611676 ], [ 93.424891, 26.611714 ], [ 93.425213, 26.611743 ], [ 93.425395, 26.611762 ], [ 93.425406, 26.611580 ], [ 93.425385, 26.611407 ], [ 93.425567, 26.611321 ], [ 93.425739, 26.611417 ], [ 93.425986, 26.611378 ], [ 93.426189, 26.611311 ], [ 93.426329, 26.611407 ], [ 93.426490, 26.611666 ], [ 93.426672, 26.611819 ], [ 93.426973, 26.611839 ], [ 93.427262, 26.611656 ], [ 93.427552, 26.611570 ], [ 93.427788, 26.611772 ], [ 93.427777, 26.612088 ], [ 93.427573, 26.612520 ], [ 93.427563, 26.612788 ], [ 93.427809, 26.612932 ], [ 93.428099, 26.613086 ], [ 93.428421, 26.613124 ], [ 93.428721, 26.613028 ], [ 93.428721, 26.612855 ], [ 93.428378, 26.612798 ], [ 93.428088, 26.612712 ], [ 93.428228, 26.612529 ], [ 93.428539, 26.612357 ], [ 93.428872, 26.612222 ], [ 93.429161, 26.612337 ], [ 93.429290, 26.612644 ], [ 93.429290, 26.612951 ], [ 93.429290, 26.613239 ], [ 93.429430, 26.613412 ], [ 93.429751, 26.613527 ], [ 93.429784, 26.613757 ], [ 93.429751, 26.613997 ], [ 93.430030, 26.614122 ], [ 93.430588, 26.614198 ], [ 93.431114, 26.614352 ], [ 93.431489, 26.614486 ], [ 93.431854, 26.614668 ], [ 93.432080, 26.614688 ], [ 93.432305, 26.614496 ], [ 93.432498, 26.614342 ], [ 93.432691, 26.614390 ], [ 93.433163, 26.614553 ], [ 93.434021, 26.614592 ], [ 93.434676, 26.614419 ], [ 93.435159, 26.614505 ], [ 93.435438, 26.614572 ], [ 93.435845, 26.614438 ], [ 93.435953, 26.614208 ], [ 93.436371, 26.614246 ], [ 93.436596, 26.614409 ], [ 93.436886, 26.614352 ], [ 93.436961, 26.614083 ], [ 93.437294, 26.614141 ], [ 93.437659, 26.614323 ], [ 93.437980, 26.614304 ], [ 93.438259, 26.614189 ], [ 93.438549, 26.614016 ], [ 93.438925, 26.613863 ], [ 93.439364, 26.613757 ], [ 93.439815, 26.613776 ], [ 93.440223, 26.613767 ], [ 93.440588, 26.613728 ], [ 93.440974, 26.613757 ], [ 93.441553, 26.613872 ], [ 93.442079, 26.614006 ], [ 93.442465, 26.614112 ], [ 93.442723, 26.614083 ], [ 93.443152, 26.614131 ], [ 93.443549, 26.614237 ], [ 93.443785, 26.614256 ], [ 93.444321, 26.614390 ], [ 93.444922, 26.614419 ], [ 93.445630, 26.614419 ], [ 93.446456, 26.614477 ], [ 93.447025, 26.614668 ], [ 93.447379, 26.614831 ], [ 93.447948, 26.614975 ], [ 93.448280, 26.615052 ], [ 93.448709, 26.615062 ], [ 93.449063, 26.614956 ], [ 93.449889, 26.614553 ], [ 93.450265, 26.614409 ], [ 93.450683, 26.614381 ], [ 93.451059, 26.614361 ], [ 93.451595, 26.614304 ], [ 93.452035, 26.614371 ], [ 93.452464, 26.614544 ], [ 93.452936, 26.614611 ], [ 93.453344, 26.614668 ], [ 93.453956, 26.614793 ], [ 93.454320, 26.614908 ], [ 93.454685, 26.614927 ], [ 93.455018, 26.614812 ], [ 93.455490, 26.614534 ], [ 93.456037, 26.614304 ], [ 93.456509, 26.614256 ], [ 93.457056, 26.614438 ], [ 93.457464, 26.614745 ], [ 93.457958, 26.615052 ], [ 93.458494, 26.615244 ], [ 93.459095, 26.615359 ], [ 93.459631, 26.615560 ], [ 93.459889, 26.615714 ], [ 93.460275, 26.615810 ], [ 93.461219, 26.616232 ], [ 93.461777, 26.616606 ], [ 93.462056, 26.616903 ], [ 93.462421, 26.617181 ], [ 93.462893, 26.617508 ], [ 93.463300, 26.617824 ], [ 93.463805, 26.618121 ], [ 93.464373, 26.618390 ], [ 93.464824, 26.618707 ], [ 93.465114, 26.618946 ], [ 93.465436, 26.619061 ], [ 93.465779, 26.619090 ], [ 93.466187, 26.618927 ], [ 93.466691, 26.618850 ], [ 93.467002, 26.618822 ], [ 93.467517, 26.618898 ], [ 93.468000, 26.619061 ], [ 93.468375, 26.619330 ], [ 93.468708, 26.619551 ], [ 93.468965, 26.619886 ], [ 93.469212, 26.620155 ], [ 93.469620, 26.620452 ], [ 93.470006, 26.620759 ], [ 93.470296, 26.620980 ], [ 93.470703, 26.621344 ], [ 93.471293, 26.621747 ], [ 93.471562, 26.622054 ], [ 93.471766, 26.622332 ], [ 93.471787, 26.622572 ], [ 93.472087, 26.622831 ], [ 93.472710, 26.622658 ], [ 93.473461, 26.622064 ], [ 93.474147, 26.621354 ], [ 93.474963, 26.620759 ], [ 93.475842, 26.619973 ], [ 93.476872, 26.619071 ], [ 93.477666, 26.618591 ], [ 93.478289, 26.618246 ], [ 93.479061, 26.617882 ], [ 93.480284, 26.617229 ], [ 93.481550, 26.616903 ], [ 93.482323, 26.616884 ], [ 93.483160, 26.616942 ], [ 93.483996, 26.617114 ], [ 93.485198, 26.617383 ], [ 93.486378, 26.617594 ], [ 93.487365, 26.617939 ], [ 93.488653, 26.618169 ], [ 93.489661, 26.618476 ], [ 93.490047, 26.618639 ], [ 93.490326, 26.618572 ], [ 93.490498, 26.618361 ], [ 93.490680, 26.618400 ], [ 93.490938, 26.618659 ], [ 93.491088, 26.618937 ], [ 93.491260, 26.619196 ], [ 93.491474, 26.619359 ], [ 93.491689, 26.619579 ], [ 93.492043, 26.619867 ], [ 93.492526, 26.619992 ], [ 93.493288, 26.619666 ], [ 93.494071, 26.619723 ], [ 93.494790, 26.619733 ], [ 93.495423, 26.619858 ], [ 93.495637, 26.619618 ], [ 93.495852, 26.619330 ], [ 93.496174, 26.619205 ], [ 93.496689, 26.619244 ], [ 93.497139, 26.619244 ], [ 93.497450, 26.619148 ], [ 93.497804, 26.619023 ], [ 93.498352, 26.618994 ], [ 93.498566, 26.619004 ], [ 93.498995, 26.619023 ], [ 93.499607, 26.619282 ], [ 93.500025, 26.619301 ], [ 93.500293, 26.619263 ], [ 93.500583, 26.619071 ], [ 93.500723, 26.618927 ], [ 93.501002, 26.618831 ], [ 93.501302, 26.618927 ], [ 93.501645, 26.618994 ], [ 93.501924, 26.618965 ], [ 93.502182, 26.619004 ], [ 93.502493, 26.619100 ], [ 93.502740, 26.619205 ], [ 93.502976, 26.619167 ], [ 93.503180, 26.619176 ], [ 93.503458, 26.619388 ], [ 93.503555, 26.619531 ], [ 93.503652, 26.619723 ], [ 93.503952, 26.619819 ], [ 93.504306, 26.620001 ], [ 93.504499, 26.620088 ], [ 93.504735, 26.620164 ], [ 93.504982, 26.620327 ], [ 93.505229, 26.620491 ], [ 93.505347, 26.620663 ], [ 93.505540, 26.620797 ], [ 93.505905, 26.620769 ], [ 93.506291, 26.620922 ], [ 93.506548, 26.621066 ], [ 93.506881, 26.621172 ], [ 93.507224, 26.621239 ], [ 93.507632, 26.621383 ], [ 93.507814, 26.621594 ], [ 93.507857, 26.621766 ], [ 93.508115, 26.621862 ], [ 93.508351, 26.621862 ], [ 93.508576, 26.621881 ], [ 93.508844, 26.621996 ], [ 93.508973, 26.622179 ], [ 93.508941, 26.622457 ], [ 93.508909, 26.622802 ], [ 93.508683, 26.623224 ], [ 93.508630, 26.623512 ], [ 93.508565, 26.623742 ], [ 93.508351, 26.624174 ], [ 93.508254, 26.624509 ], [ 93.508168, 26.624787 ], [ 93.507943, 26.625037 ], [ 93.507696, 26.625152 ], [ 93.507600, 26.625468 ], [ 93.507482, 26.625795 ], [ 93.507503, 26.626236 ], [ 93.507771, 26.626514 ], [ 93.507868, 26.626754 ], [ 93.507922, 26.627204 ], [ 93.508040, 26.627559 ], [ 93.508168, 26.627905 ], [ 93.508254, 26.628240 ], [ 93.508469, 26.628557 ], [ 93.508576, 26.628825 ], [ 93.508801, 26.629027 ], [ 93.509263, 26.629756 ], [ 93.509220, 26.630158 ], [ 93.509145, 26.630369 ], [ 93.509177, 26.630619 ], [ 93.509327, 26.630916 ], [ 93.509510, 26.631386 ], [ 93.509499, 26.631664 ], [ 93.509756, 26.631856 ], [ 93.509960, 26.632172 ], [ 93.509982, 26.632489 ], [ 93.510035, 26.632805 ], [ 93.510121, 26.633026 ], [ 93.510239, 26.633496 ], [ 93.510411, 26.633918 ], [ 93.510540, 26.634148 ], [ 93.510776, 26.634426 ], [ 93.510926, 26.634771 ], [ 93.511108, 26.635155 ], [ 93.511162, 26.635452 ], [ 93.511258, 26.635798 ], [ 93.511409, 26.636172 ], [ 93.511698, 26.636594 ], [ 93.511773, 26.636900 ], [ 93.511795, 26.637313 ], [ 93.511881, 26.637629 ], [ 93.512020, 26.637869 ], [ 93.511913, 26.638070 ], [ 93.511623, 26.638147 ], [ 93.511130, 26.638243 ], [ 93.510743, 26.638243 ], [ 93.510464, 26.638195 ], [ 93.510164, 26.638147 ], [ 93.509842, 26.638205 ], [ 93.509467, 26.638281 ], [ 93.509037, 26.638310 ], [ 93.508673, 26.638310 ], [ 93.508319, 26.638262 ], [ 93.507997, 26.638224 ], [ 93.507632, 26.638186 ], [ 93.507203, 26.638051 ], [ 93.506784, 26.637994 ], [ 93.506387, 26.637898 ], [ 93.506087, 26.637879 ], [ 93.505669, 26.637764 ], [ 93.505164, 26.637668 ], [ 93.504853, 26.637505 ], [ 93.504585, 26.637332 ], [ 93.504092, 26.637198 ], [ 93.503662, 26.637063 ], [ 93.503233, 26.636929 ], [ 93.502772, 26.636805 ], [ 93.502289, 26.636622 ], [ 93.501903, 26.636440 ], [ 93.501377, 26.636248 ], [ 93.500766, 26.636133 ], [ 93.500369, 26.636037 ], [ 93.500057, 26.635999 ], [ 93.499435, 26.635903 ], [ 93.499081, 26.635874 ], [ 93.498566, 26.635846 ], [ 93.498008, 26.635893 ], [ 93.497493, 26.635941 ], [ 93.497000, 26.636066 ], [ 93.496614, 26.636104 ], [ 93.496270, 26.636258 ], [ 93.495873, 26.636440 ], [ 93.495069, 26.636737 ], [ 93.494414, 26.637073 ], [ 93.493931, 26.637351 ], [ 93.493416, 26.637668 ], [ 93.493191, 26.638032 ], [ 93.492955, 26.638416 ], [ 93.492805, 26.638742 ], [ 93.492644, 26.639250 ], [ 93.492676, 26.639720 ], [ 93.492762, 26.640008 ], [ 93.492848, 26.640276 ], [ 93.492987, 26.640871 ], [ 93.493159, 26.641312 ], [ 93.493266, 26.641571 ], [ 93.493513, 26.641916 ], [ 93.493727, 26.642319 ], [ 93.493910, 26.642750 ], [ 93.494017, 26.643134 ], [ 93.494135, 26.643470 ], [ 93.494253, 26.643786 ], [ 93.494360, 26.644083 ], [ 93.494425, 26.644486 ], [ 93.494543, 26.644879 ], [ 93.494693, 26.645359 ], [ 93.494897, 26.645761 ], [ 93.495187, 26.646155 ], [ 93.495358, 26.646413 ], [ 93.495648, 26.646624 ], [ 93.495938, 26.646826 ], [ 93.496120, 26.647046 ], [ 93.496549, 26.647430 ], [ 93.496828, 26.647631 ], [ 93.497279, 26.647814 ], [ 93.497719, 26.647909 ], [ 93.498126, 26.647977 ], [ 93.498448, 26.647967 ], [ 93.498652, 26.647823 ], [ 93.498813, 26.647622 ], [ 93.498974, 26.647487 ], [ 93.499156, 26.647478 ], [ 93.499306, 26.647593 ], [ 93.499264, 26.647881 ], [ 93.499285, 26.648092 ], [ 93.499489, 26.648197 ], [ 93.499703, 26.648159 ], [ 93.500068, 26.648197 ], [ 93.500412, 26.648322 ], [ 93.500776, 26.648600 ], [ 93.501152, 26.648705 ], [ 93.501645, 26.648705 ], [ 93.502246, 26.648772 ], [ 93.502868, 26.648945 ], [ 93.503458, 26.648983 ], [ 93.503973, 26.649031 ], [ 93.504328, 26.649089 ], [ 93.504692, 26.649108 ], [ 93.505250, 26.649233 ], [ 93.505765, 26.649434 ], [ 93.506259, 26.649779 ], [ 93.506452, 26.650057 ], [ 93.506774, 26.650451 ], [ 93.506999, 26.650623 ], [ 93.507353, 26.650901 ], [ 93.507568, 26.651237 ], [ 93.507857, 26.651553 ], [ 93.508286, 26.651918 ], [ 93.508630, 26.652234 ], [ 93.508930, 26.652503 ], [ 93.509113, 26.652771 ], [ 93.509477, 26.653845 ], [ 93.509617, 26.654334 ], [ 93.509821, 26.654765 ], [ 93.510046, 26.655561 ], [ 93.510153, 26.656117 ], [ 93.510228, 26.656616 ], [ 93.510422, 26.657134 ], [ 93.510464, 26.657489 ], [ 93.510400, 26.658026 ], [ 93.510379, 26.658428 ], [ 93.510250, 26.658812 ], [ 93.510025, 26.659320 ], [ 93.509917, 26.659636 ], [ 93.509531, 26.659924 ], [ 93.509284, 26.660221 ], [ 93.509134, 26.660413 ], [ 93.509145, 26.660423 ] ] ] } }
,
{ "type": "Feature", "properties": { "id": "10,9,2,3,4,5,6,7,8", "NAME": "1,150,110,30,40,60,70,80,90,100", "PERIMETER": "", "ENCLOSED_AREA": "", "LENGTH": "127.86 km", "BEARING": "224° 39' 50.6''" }, "geometry": { "type": "LineString", "coordinates": [ [ 93.509145, 26.660423 ], [ 93.508351, 26.660979 ], [ 93.507557, 26.661247 ], [ 93.507214, 26.661612 ], [ 93.507471, 26.661918 ], [ 93.508286, 26.662148 ], [ 93.508909, 26.662379 ], [ 93.509574, 26.662724 ], [ 93.510368, 26.662839 ], [ 93.511140, 26.662992 ], [ 93.512127, 26.663280 ], [ 93.513222, 26.663606 ], [ 93.513651, 26.664009 ], [ 93.514380, 26.664124 ], [ 93.515325, 26.664143 ], [ 93.515925, 26.664239 ], [ 93.516612, 26.664661 ], [ 93.516741, 26.665178 ], [ 93.516998, 26.665696 ], [ 93.517170, 26.665964 ], [ 93.517857, 26.666003 ], [ 93.518586, 26.666003 ], [ 93.519337, 26.666060 ], [ 93.520045, 26.666060 ], [ 93.520625, 26.666022 ], [ 93.521783, 26.665907 ], [ 93.522749, 26.665849 ], [ 93.523350, 26.665696 ], [ 93.524251, 26.665504 ], [ 93.524873, 26.665466 ], [ 93.525646, 26.665332 ], [ 93.526461, 26.665332 ], [ 93.527191, 26.665217 ], [ 93.527534, 26.665082 ], [ 93.528113, 26.664737 ], [ 93.528521, 26.664277 ], [ 93.529058, 26.664047 ], [ 93.529572, 26.663855 ], [ 93.529937, 26.663702 ], [ 93.530538, 26.663472 ], [ 93.531096, 26.663242 ], [ 93.531976, 26.662877 ], [ 93.532641, 26.662916 ], [ 93.533521, 26.662935 ], [ 93.534272, 26.662858 ], [ 93.534958, 26.662781 ], [ 93.535388, 26.662590 ], [ 93.535988, 26.662551 ], [ 93.536654, 26.662455 ], [ 93.537426, 26.662494 ], [ 93.538198, 26.662551 ], [ 93.539422, 26.662781 ], [ 93.540001, 26.662551 ], [ 93.540301, 26.662532 ], [ 93.540902, 26.662666 ], [ 93.541739, 26.662724 ], [ 93.542254, 26.662896 ], [ 93.542812, 26.663184 ], [ 93.543477, 26.663510 ], [ 93.544185, 26.663644 ], [ 93.544722, 26.663798 ], [ 93.545666, 26.664277 ], [ 93.546288, 26.664392 ], [ 93.546932, 26.664545 ], [ 93.547597, 26.664737 ], [ 93.547983, 26.664833 ], [ 93.548799, 26.665025 ], [ 93.549700, 26.665217 ], [ 93.550408, 26.665351 ], [ 93.550987, 26.665428 ], [ 93.551524, 26.665523 ], [ 93.552296, 26.665562 ], [ 93.553047, 26.665581 ], [ 93.553991, 26.665504 ], [ 93.555064, 26.665447 ], [ 93.555794, 26.665466 ], [ 93.556352, 26.665312 ], [ 93.556910, 26.665255 ], [ 93.557553, 26.665121 ], [ 93.558068, 26.664910 ], [ 93.558776, 26.664699 ], [ 93.559463, 26.664526 ], [ 93.559806, 26.664258 ], [ 93.560643, 26.663855 ], [ 93.561308, 26.663663 ], [ 93.561952, 26.663587 ], [ 93.563497, 26.663395 ], [ 93.564055, 26.663357 ], [ 93.564785, 26.663376 ], [ 93.565385, 26.663510 ], [ 93.565943, 26.663683 ], [ 93.566587, 26.663989 ], [ 93.567359, 26.664584 ], [ 93.568025, 26.664929 ], [ 93.568776, 26.665312 ], [ 93.569376, 26.665869 ], [ 93.570042, 26.666482 ], [ 93.570664, 26.667000 ], [ 93.571393, 26.667652 ], [ 93.572338, 26.668649 ], [ 93.573024, 26.669128 ], [ 93.573818, 26.669857 ], [ 93.574505, 26.670471 ], [ 93.575170, 26.671084 ], [ 93.575535, 26.671468 ], [ 93.576307, 26.671928 ], [ 93.576994, 26.672292 ], [ 93.577552, 26.672676 ], [ 93.578174, 26.673213 ], [ 93.578711, 26.673673 ], [ 93.579204, 26.674152 ], [ 93.579633, 26.674478 ], [ 93.579955, 26.675302 ], [ 93.580363, 26.676223 ], [ 93.580642, 26.676856 ], [ 93.580792, 26.677297 ], [ 93.581414, 26.677891 ], [ 93.582144, 26.678370 ], [ 93.582723, 26.678811 ], [ 93.583217, 26.679291 ], [ 93.583903, 26.679674 ], [ 93.584633, 26.680077 ], [ 93.585083, 26.680403 ], [ 93.585770, 26.680690 ], [ 93.586371, 26.680844 ], [ 93.587079, 26.681131 ], [ 93.587487, 26.681572 ], [ 93.588195, 26.682071 ], [ 93.588560, 26.682703 ], [ 93.588946, 26.683336 ], [ 93.589182, 26.683854 ], [ 93.589268, 26.684429 ], [ 93.589203, 26.684985 ], [ 93.589096, 26.685387 ], [ 93.589032, 26.685752 ], [ 93.588645, 26.686154 ], [ 93.588688, 26.686672 ], [ 93.588753, 26.687343 ], [ 93.588881, 26.687803 ], [ 93.588903, 26.688282 ], [ 93.588860, 26.688858 ], [ 93.588758, 26.689198 ], [ 93.588608, 26.689524 ], [ 93.588490, 26.689883 ], [ 93.588356, 26.690334 ], [ 93.588200, 26.690746 ], [ 93.588034, 26.691321 ], [ 93.587953, 26.691666 ], [ 93.587793, 26.691824 ], [ 93.587444, 26.692035 ], [ 93.587165, 26.692213 ], [ 93.586859, 26.692395 ], [ 93.586628, 26.692553 ], [ 93.586387, 26.692754 ], [ 93.586108, 26.692975 ], [ 93.585781, 26.693262 ], [ 93.585486, 26.693463 ], [ 93.585132, 26.693679 ], [ 93.584826, 26.693866 ], [ 93.584670, 26.693976 ], [ 93.584134, 26.694278 ], [ 93.583624, 26.694532 ], [ 93.583152, 26.694772 ], [ 93.582723, 26.694992 ], [ 93.582342, 26.695103 ], [ 93.581999, 26.695275 ], [ 93.581602, 26.695457 ], [ 93.581264, 26.695591 ], [ 93.580170, 26.695941 ], [ 93.579445, 26.696190 ], [ 93.578609, 26.696382 ], [ 93.578244, 26.696507 ], [ 93.577777, 26.696646 ], [ 93.577348, 26.696809 ], [ 93.577117, 26.696967 ], [ 93.576661, 26.697159 ], [ 93.576361, 26.697274 ], [ 93.575980, 26.697326 ], [ 93.575497, 26.697432 ], [ 93.575057, 26.697552 ], [ 93.574521, 26.697667 ], [ 93.574076, 26.697777 ], [ 93.573673, 26.697949 ], [ 93.573228, 26.698122 ], [ 93.572933, 26.698227 ], [ 93.572697, 26.698246 ], [ 93.572332, 26.698242 ], [ 93.572091, 26.698309 ], [ 93.571807, 26.698448 ], [ 93.571045, 26.698611 ], [ 93.570482, 26.698721 ], [ 93.569945, 26.698812 ], [ 93.569419, 26.698941 ], [ 93.568701, 26.699061 ], [ 93.568132, 26.699191 ], [ 93.567606, 26.699349 ], [ 93.567129, 26.699425 ], [ 93.566592, 26.699497 ], [ 93.566147, 26.699536 ], [ 93.565809, 26.699540 ], [ 93.565219, 26.699512 ], [ 93.564457, 26.699473 ], [ 93.563819, 26.699440 ], [ 93.563132, 26.699473 ], [ 93.562548, 26.699488 ], [ 93.562135, 26.699502 ], [ 93.561378, 26.699526 ], [ 93.560997, 26.699492 ], [ 93.560514, 26.699497 ], [ 93.560069, 26.699560 ], [ 93.559849, 26.699560 ], [ 93.559699, 26.699512 ], [ 93.559474, 26.699421 ], [ 93.559088, 26.699382 ], [ 93.558733, 26.699454 ], [ 93.558336, 26.699516 ], [ 93.557746, 26.699612 ], [ 93.557253, 26.699660 ], [ 93.556910, 26.699708 ], [ 93.556454, 26.699737 ], [ 93.556078, 26.699699 ], [ 93.555815, 26.699723 ], [ 93.555354, 26.699780 ], [ 93.554844, 26.699900 ], [ 93.554447, 26.699919 ], [ 93.554168, 26.699996 ], [ 93.553997, 26.700173 ], [ 93.553868, 26.700384 ], [ 93.553584, 26.700590 ], [ 93.553165, 26.700667 ], [ 93.552811, 26.700710 ], [ 93.552302, 26.700801 ], [ 93.551947, 26.700806 ], [ 93.551760, 26.700719 ], [ 93.551583, 26.700628 ], [ 93.551175, 26.700552 ], [ 93.550918, 26.700504 ], [ 93.550805, 26.700427 ], [ 93.550515, 26.700437 ], [ 93.550183, 26.700499 ], [ 93.549748, 26.700561 ], [ 93.549367, 26.700590 ], [ 93.549002, 26.700681 ], [ 93.548718, 26.700700 ], [ 93.548471, 26.700686 ], [ 93.548107, 26.700739 ], [ 93.547720, 26.700858 ], [ 93.547377, 26.700940 ], [ 93.547077, 26.700978 ], [ 93.546728, 26.701016 ], [ 93.546288, 26.701016 ], [ 93.545934, 26.701132 ], [ 93.545596, 26.701170 ], [ 93.545322, 26.701223 ], [ 93.544824, 26.701299 ], [ 93.544373, 26.701419 ], [ 93.544153, 26.701477 ], [ 93.543890, 26.701491 ], [ 93.543676, 26.701572 ], [ 93.543397, 26.701673 ], [ 93.543203, 26.701750 ], [ 93.543005, 26.701774 ], [ 93.542817, 26.701850 ], [ 93.542576, 26.701937 ], [ 93.542501, 26.702071 ], [ 93.542452, 26.702186 ], [ 93.542233, 26.702210 ], [ 93.542072, 26.702176 ], [ 93.541739, 26.702186 ], [ 93.541315, 26.702243 ], [ 93.540682, 26.702267 ], [ 93.540205, 26.702330 ], [ 93.539754, 26.702459 ], [ 93.539363, 26.702526 ], [ 93.538928, 26.702584 ], [ 93.538542, 26.702670 ], [ 93.538118, 26.702761 ], [ 93.537839, 26.702871 ], [ 93.537608, 26.702914 ], [ 93.537421, 26.702881 ], [ 93.537179, 26.702881 ], [ 93.536949, 26.702919 ], [ 93.536450, 26.702938 ], [ 93.535919, 26.702953 ], [ 93.535398, 26.702967 ], [ 93.535173, 26.702924 ], [ 93.534964, 26.702948 ], [ 93.534620, 26.703005 ], [ 93.534309, 26.703039 ], [ 93.533993, 26.703063 ], [ 93.533708, 26.703072 ], [ 93.533354, 26.703077 ], [ 93.533145, 26.703101 ], [ 93.532898, 26.703058 ], [ 93.532566, 26.702967 ], [ 93.532062, 26.702900 ], [ 93.531649, 26.702862 ], [ 93.531241, 26.702818 ], [ 93.530822, 26.702847 ], [ 93.530393, 26.702852 ], [ 93.530125, 26.702890 ], [ 93.529460, 26.703053 ], [ 93.528848, 26.703135 ], [ 93.528403, 26.703235 ], [ 93.527931, 26.703355 ], [ 93.527604, 26.703461 ], [ 93.527116, 26.703624 ], [ 93.526810, 26.703758 ], [ 93.526429, 26.703892 ], [ 93.526048, 26.704064 ], [ 93.525823, 26.704218 ], [ 93.525544, 26.704285 ], [ 93.525259, 26.704453 ], [ 93.525125, 26.704558 ], [ 93.524272, 26.704846 ], [ 93.523881, 26.705047 ], [ 93.523527, 26.705310 ], [ 93.523269, 26.705377 ], [ 93.522990, 26.705588 ], [ 93.522642, 26.705689 ], [ 93.522186, 26.705866 ], [ 93.521885, 26.705943 ], [ 93.521601, 26.706087 ], [ 93.521419, 26.706149 ], [ 93.521124, 26.706331 ], [ 93.520684, 26.706484 ], [ 93.520228, 26.706628 ], [ 93.519890, 26.706791 ], [ 93.519552, 26.706973 ], [ 93.519149, 26.707179 ], [ 93.518844, 26.707299 ], [ 93.518511, 26.707385 ], [ 93.518162, 26.707534 ], [ 93.517894, 26.707711 ], [ 93.517647, 26.707845 ], [ 93.517224, 26.707984 ], [ 93.516977, 26.708114 ], [ 93.516698, 26.708329 ], [ 93.516440, 26.708420 ], [ 93.516231, 26.708531 ], [ 93.516199, 26.708694 ], [ 93.516017, 26.708804 ], [ 93.515813, 26.708804 ], [ 93.515695, 26.708866 ], [ 93.515512, 26.708842 ], [ 93.515319, 26.708919 ], [ 93.515233, 26.709072 ], [ 93.515019, 26.709144 ], [ 93.514772, 26.709326 ], [ 93.514622, 26.709412 ], [ 93.514429, 26.709417 ], [ 93.514246, 26.709446 ], [ 93.514134, 26.709556 ], [ 93.514155, 26.709657 ], [ 93.514016, 26.709805 ], [ 93.513806, 26.709901 ], [ 93.513613, 26.709954 ], [ 93.513485, 26.710146 ], [ 93.513302, 26.710347 ], [ 93.513050, 26.710562 ], [ 93.512943, 26.710697 ], [ 93.512862, 26.710826 ], [ 93.512637, 26.710984 ], [ 93.512374, 26.711099 ], [ 93.512213, 26.711161 ], [ 93.512106, 26.711339 ], [ 93.511993, 26.711435 ], [ 93.511934, 26.711530 ], [ 93.511924, 26.711636 ], [ 93.511747, 26.711775 ], [ 93.511677, 26.711866 ], [ 93.511521, 26.712221 ], [ 93.511344, 26.712374 ], [ 93.511108, 26.712542 ], [ 93.510931, 26.712738 ], [ 93.510888, 26.713021 ], [ 93.510802, 26.713203 ], [ 93.510786, 26.713380 ], [ 93.510695, 26.713514 ], [ 93.510572, 26.713591 ], [ 93.510379, 26.713816 ], [ 93.510218, 26.714085 ], [ 93.510089, 26.714219 ], [ 93.510025, 26.714353 ], [ 93.509987, 26.714535 ], [ 93.509837, 26.714607 ], [ 93.509767, 26.714755 ], [ 93.509730, 26.714918 ], [ 93.509520, 26.715019 ], [ 93.509451, 26.715297 ], [ 93.509493, 26.715541 ], [ 93.509338, 26.715637 ], [ 93.509290, 26.715752 ], [ 93.509252, 26.715877 ], [ 93.509177, 26.716049 ], [ 93.509048, 26.716382 ], [ 93.508828, 26.716552 ], [ 93.508689, 26.716811 ], [ 93.508571, 26.717055 ], [ 93.508388, 26.717247 ], [ 93.508195, 26.717324 ], [ 93.507965, 26.717415 ], [ 93.507707, 26.717525 ], [ 93.507611, 26.717630 ], [ 93.507503, 26.717803 ], [ 93.507482, 26.717937 ], [ 93.507525, 26.718043 ], [ 93.507632, 26.718114 ], [ 93.507535, 26.718229 ], [ 93.507380, 26.718316 ], [ 93.507181, 26.718483 ], [ 93.507112, 26.718665 ], [ 93.506988, 26.718838 ], [ 93.506779, 26.719073 ], [ 93.506532, 26.719303 ], [ 93.506479, 26.719432 ], [ 93.506371, 26.719528 ], [ 93.506189, 26.719676 ], [ 93.506082, 26.719854 ], [ 93.505915, 26.719993 ], [ 93.505787, 26.720132 ], [ 93.505685, 26.720251 ], [ 93.505561, 26.720400 ], [ 93.505492, 26.720534 ], [ 93.505352, 26.720687 ], [ 93.505245, 26.720793 ], [ 93.504928, 26.721234 ], [ 93.504891, 26.721464 ], [ 93.504725, 26.721617 ], [ 93.504617, 26.721790 ], [ 93.504413, 26.721972 ], [ 93.504290, 26.722206 ], [ 93.504113, 26.722302 ], [ 93.503947, 26.722503 ], [ 93.503802, 26.722695 ], [ 93.503700, 26.722839 ], [ 93.503614, 26.722968 ], [ 93.503469, 26.723069 ], [ 93.503212, 26.723261 ], [ 93.502874, 26.723605 ], [ 93.502718, 26.723816 ], [ 93.502493, 26.724065 ], [ 93.502321, 26.724276 ], [ 93.502117, 26.724478 ], [ 93.501758, 26.724779 ], [ 93.501608, 26.724909 ], [ 93.501211, 26.725259 ], [ 93.500964, 26.725388 ], [ 93.500776, 26.725556 ], [ 93.500546, 26.725805 ], [ 93.500336, 26.726011 ], [ 93.500165, 26.726174 ], [ 93.499859, 26.726375 ], [ 93.499559, 26.726571 ], [ 93.499355, 26.726672 ], [ 93.499205, 26.726849 ], [ 93.499017, 26.726983 ], [ 93.498781, 26.727055 ], [ 93.498180, 26.727348 ], [ 93.497558, 26.727616 ], [ 93.496399, 26.728095 ], [ 93.494811, 26.728766 ], [ 93.493845, 26.729226 ], [ 93.492944, 26.729647 ], [ 93.492107, 26.730088 ], [ 93.491292, 26.730491 ], [ 93.489919, 26.731161 ], [ 93.488867, 26.731621 ], [ 93.488116, 26.732081 ], [ 93.487215, 26.732618 ], [ 93.486636, 26.732771 ], [ 93.485756, 26.733097 ], [ 93.484833, 26.733557 ], [ 93.484104, 26.734036 ], [ 93.483202, 26.734419 ], [ 93.482409, 26.734975 ], [ 93.481700, 26.735416 ], [ 93.481121, 26.735703 ], [ 93.480456, 26.736106 ], [ 93.479533, 26.736566 ], [ 93.478868, 26.736968 ], [ 93.478353, 26.737313 ], [ 93.477924, 26.737639 ], [ 93.477473, 26.737984 ], [ 93.477001, 26.738271 ], [ 93.476400, 26.738444 ], [ 93.475821, 26.738750 ], [ 93.475435, 26.739095 ], [ 93.474898, 26.739555 ], [ 93.474512, 26.739785 ], [ 93.474104, 26.739957 ], [ 93.473589, 26.740207 ], [ 93.472924, 26.740705 ], [ 93.472173, 26.741031 ], [ 93.471594, 26.741280 ], [ 93.471100, 26.741529 ], [ 93.470650, 26.741720 ], [ 93.470178, 26.741912 ], [ 93.469727, 26.742180 ], [ 93.468890, 26.742487 ], [ 93.468375, 26.742889 ], [ 93.467817, 26.743253 ], [ 93.467367, 26.743541 ], [ 93.466852, 26.743809 ], [ 93.466337, 26.744173 ], [ 93.465886, 26.744518 ], [ 93.465350, 26.744806 ], [ 93.464792, 26.744997 ], [ 93.464363, 26.745131 ], [ 93.463976, 26.745419 ], [ 93.463569, 26.745572 ], [ 93.462925, 26.745802 ], [ 93.462217, 26.746032 ], [ 93.461702, 26.746070 ], [ 93.461359, 26.746224 ], [ 93.460886, 26.746262 ], [ 93.460414, 26.746243 ], [ 93.460050, 26.746070 ], [ 93.459642, 26.745725 ], [ 93.459213, 26.745380 ], [ 93.458827, 26.744997 ], [ 93.458505, 26.744633 ], [ 93.458118, 26.744288 ], [ 93.457625, 26.743982 ], [ 93.457153, 26.743790 ], [ 93.456509, 26.743445 ], [ 93.456080, 26.743253 ], [ 93.455501, 26.743062 ], [ 93.454878, 26.742813 ], [ 93.454149, 26.742391 ], [ 93.453290, 26.741950 ], [ 93.452668, 26.741740 ], [ 93.452024, 26.741471 ], [ 93.451166, 26.741031 ], [ 93.450716, 26.740858 ], [ 93.450308, 26.740628 ], [ 93.449750, 26.740283 ], [ 93.449171, 26.740034 ], [ 93.448505, 26.739708 ], [ 93.447883, 26.739440 ], [ 93.447111, 26.739018 ], [ 93.446746, 26.738827 ], [ 93.446317, 26.738501 ], [ 93.445544, 26.738060 ], [ 93.445051, 26.737754 ], [ 93.444579, 26.737390 ], [ 93.443871, 26.737045 ], [ 93.443291, 26.736681 ], [ 93.442841, 26.736393 ], [ 93.442433, 26.736182 ], [ 93.441811, 26.735742 ], [ 93.441274, 26.735473 ], [ 93.440437, 26.734975 ], [ 93.440030, 26.734707 ], [ 93.439665, 26.734400 ], [ 93.439257, 26.734093 ], [ 93.438914, 26.733825 ], [ 93.438399, 26.733499 ], [ 93.437948, 26.733154 ], [ 93.437283, 26.732522 ], [ 93.436811, 26.732139 ], [ 93.436275, 26.731564 ], [ 93.435545, 26.731008 ], [ 93.435137, 26.730625 ], [ 93.434451, 26.730088 ], [ 93.433871, 26.729762 ], [ 93.433249, 26.729341 ], [ 93.432627, 26.728996 ], [ 93.431747, 26.728497 ], [ 93.431168, 26.728095 ], [ 93.430717, 26.727731 ], [ 93.430116, 26.727443 ], [ 93.429408, 26.727194 ], [ 93.428679, 26.727022 ], [ 93.427906, 26.726849 ], [ 93.427198, 26.726600 ], [ 93.425996, 26.726389 ], [ 93.425224, 26.726236 ], [ 93.424451, 26.726063 ], [ 93.423722, 26.725891 ], [ 93.422606, 26.725565 ], [ 93.421984, 26.725412 ], [ 93.420846, 26.725144 ], [ 93.420095, 26.724971 ], [ 93.419087, 26.724837 ], [ 93.418508, 26.724703 ], [ 93.417971, 26.724626 ], [ 93.417413, 26.724492 ], [ 93.416405, 26.724281 ], [ 93.415654, 26.724185 ], [ 93.415031, 26.724147 ], [ 93.414195, 26.724147 ], [ 93.413014, 26.724166 ], [ 93.412263, 26.724128 ], [ 93.410976, 26.723936 ], [ 93.410311, 26.723955 ], [ 93.409774, 26.723955 ], [ 93.408251, 26.723898 ], [ 93.406920, 26.723687 ], [ 93.405676, 26.723534 ], [ 93.404667, 26.723342 ], [ 93.404281, 26.723112 ], [ 93.403616, 26.722556 ], [ 93.402972, 26.722077 ], [ 93.402479, 26.721828 ], [ 93.401663, 26.721540 ], [ 93.401084, 26.721272 ], [ 93.400183, 26.720965 ], [ 93.399453, 26.720870 ], [ 93.398809, 26.720640 ], [ 93.398058, 26.720582 ], [ 93.397372, 26.720563 ], [ 93.396642, 26.720582 ], [ 93.395934, 26.720678 ], [ 93.395162, 26.720774 ], [ 93.394303, 26.721004 ], [ 93.393488, 26.721310 ], [ 93.393016, 26.721253 ], [ 93.392308, 26.721061 ], [ 93.390892, 26.720735 ], [ 93.390055, 26.720429 ], [ 93.388445, 26.719854 ], [ 93.387394, 26.719355 ], [ 93.387072, 26.718991 ], [ 93.386536, 26.718857 ], [ 93.385763, 26.718685 ], [ 93.385034, 26.718455 ], [ 93.384433, 26.718244 ], [ 93.383982, 26.718052 ], [ 93.383703, 26.717669 ], [ 93.383489, 26.717228 ], [ 93.383145, 26.716960 ], [ 93.382673, 26.716576 ], [ 93.382459, 26.716059 ], [ 93.382180, 26.715465 ], [ 93.381836, 26.714698 ], [ 93.381343, 26.714142 ], [ 93.380764, 26.713203 ], [ 93.380399, 26.712398 ], [ 93.379991, 26.711938 ], [ 93.379712, 26.711286 ], [ 93.379347, 26.710347 ], [ 93.379068, 26.709868 ], [ 93.378811, 26.709350 ], [ 93.378146, 26.707970 ], [ 93.377717, 26.707165 ], [ 93.377395, 26.706360 ], [ 93.377030, 26.705574 ], [ 93.376794, 26.704865 ], [ 93.376622, 26.704175 ], [ 93.376257, 26.703504 ], [ 93.375957, 26.702833 ], [ 93.375764, 26.702334 ], [ 93.375506, 26.701913 ], [ 93.375077, 26.701644 ], [ 93.374605, 26.701261 ], [ 93.373854, 26.700379 ], [ 93.373361, 26.699727 ], [ 93.372674, 26.699286 ], [ 93.372438, 26.698865 ], [ 93.371944, 26.698098 ], [ 93.371022, 26.697599 ], [ 93.370121, 26.697235 ], [ 93.368855, 26.696660 ], [ 93.367953, 26.696296 ], [ 93.366902, 26.695932 ], [ 93.365743, 26.695452 ], [ 93.364863, 26.695203 ], [ 93.363769, 26.695107 ], [ 93.362460, 26.694935 ], [ 93.361323, 26.694743 ], [ 93.360014, 26.694417 ], [ 93.358963, 26.694206 ], [ 93.357933, 26.693976 ], [ 93.357182, 26.693823 ], [ 93.356688, 26.693650 ], [ 93.356087, 26.693670 ], [ 93.355486, 26.693305 ], [ 93.354821, 26.693171 ], [ 93.354263, 26.693075 ], [ 93.353405, 26.692979 ], [ 93.352439, 26.692807 ], [ 93.351259, 26.692845 ], [ 93.350444, 26.692711 ], [ 93.349929, 26.692692 ], [ 93.348706, 26.692385 ], [ 93.348041, 26.692098 ], [ 93.346539, 26.691350 ], [ 93.345530, 26.690775 ], [ 93.344457, 26.690046 ], [ 93.343213, 26.689222 ], [ 93.341904, 26.688110 ], [ 93.340552, 26.687401 ], [ 93.339372, 26.686672 ], [ 93.337591, 26.685924 ], [ 93.336132, 26.685311 ], [ 93.334436, 26.684736 ], [ 93.333256, 26.684467 ], [ 93.332398, 26.684237 ], [ 93.331325, 26.683815 ], [ 93.330402, 26.683470 ], [ 93.329759, 26.683240 ], [ 93.328471, 26.682723 ], [ 93.327634, 26.682339 ], [ 93.326497, 26.682013 ], [ 93.325660, 26.681917 ], [ 93.324716, 26.681841 ], [ 93.323858, 26.681706 ], [ 93.323064, 26.681515 ], [ 93.322291, 26.681265 ], [ 93.321068, 26.681131 ], [ 93.319910, 26.681016 ], [ 93.319008, 26.680920 ], [ 93.317571, 26.680805 ], [ 93.316176, 26.680729 ], [ 93.315146, 26.680690 ], [ 93.314030, 26.680498 ], [ 93.313150, 26.680345 ], [ 93.310919, 26.679847 ], [ 93.309631, 26.679559 ], [ 93.308623, 26.679310 ], [ 93.307142, 26.679003 ], [ 93.305812, 26.678735 ], [ 93.304567, 26.678485 ], [ 93.303151, 26.678428 ], [ 93.301756, 26.678332 ], [ 93.300920, 26.678389 ], [ 93.300211, 26.678351 ], [ 93.298752, 26.678236 ], [ 93.297486, 26.678063 ], [ 93.295877, 26.677565 ], [ 93.294117, 26.677028 ], [ 93.292766, 26.676472 ], [ 93.291371, 26.675782 ], [ 93.289676, 26.675015 ], [ 93.288689, 26.674536 ], [ 93.287873, 26.674152 ], [ 93.287251, 26.673864 ], [ 93.286436, 26.673519 ], [ 93.285255, 26.673174 ], [ 93.283775, 26.672637 ], [ 93.282359, 26.671947 ], [ 93.280878, 26.671353 ], [ 93.279204, 26.670720 ], [ 93.278368, 26.670317 ], [ 93.276393, 26.669474 ], [ 93.275406, 26.668956 ], [ 93.274376, 26.668457 ], [ 93.273218, 26.668016 ], [ 93.271995, 26.667594 ], [ 93.271115, 26.667268 ], [ 93.270342, 26.666923 ], [ 93.269935, 26.666712 ], [ 93.269398, 26.666463 ], [ 93.268840, 26.666099 ], [ 93.267918, 26.665159 ], [ 93.267424, 26.664335 ], [ 93.267038, 26.663663 ], [ 93.266888, 26.662992 ], [ 93.266866, 26.662436 ], [ 93.267016, 26.661669 ], [ 93.267231, 26.661151 ], [ 93.267381, 26.660768 ], [ 93.267295, 26.660365 ], [ 93.267124, 26.659751 ], [ 93.267102, 26.659215 ], [ 93.266845, 26.658678 ], [ 93.266480, 26.658102 ], [ 93.266222, 26.657412 ], [ 93.265836, 26.656587 ], [ 93.265643, 26.656165 ], [ 93.265257, 26.655744 ], [ 93.264570, 26.655283 ], [ 93.263841, 26.654881 ], [ 93.263326, 26.654612 ], [ 93.262231, 26.653998 ], [ 93.260858, 26.653193 ], [ 93.260000, 26.652694 ], [ 93.259377, 26.652330 ], [ 93.258734, 26.652100 ], [ 93.258026, 26.651640 ], [ 93.256974, 26.651198 ], [ 93.256524, 26.650872 ], [ 93.255966, 26.650719 ], [ 93.255279, 26.650393 ], [ 93.254528, 26.649933 ], [ 93.253670, 26.649472 ], [ 93.253047, 26.649127 ], [ 93.252146, 26.648533 ], [ 93.251395, 26.647919 ], [ 93.250644, 26.647574 ], [ 93.249958, 26.647209 ], [ 93.248971, 26.646768 ], [ 93.247597, 26.645924 ], [ 93.246417, 26.645272 ], [ 93.245494, 26.644755 ], [ 93.244379, 26.643891 ], [ 93.243434, 26.643163 ], [ 93.242598, 26.642722 ], [ 93.241782, 26.642319 ], [ 93.241138, 26.641916 ], [ 93.239851, 26.641360 ], [ 93.238392, 26.640516 ], [ 93.237448, 26.640036 ], [ 93.236589, 26.639519 ], [ 93.235795, 26.639058 ], [ 93.235281, 26.638694 ], [ 93.234787, 26.637888 ], [ 93.234658, 26.637428 ], [ 93.234422, 26.637006 ], [ 93.234358, 26.636757 ], [ 93.234358, 26.636411 ], [ 93.234615, 26.635798 ], [ 93.234723, 26.635241 ], [ 93.234916, 26.634551 ], [ 93.234766, 26.633304 ], [ 93.234100, 26.632479 ], [ 93.233113, 26.631866 ], [ 93.231483, 26.631156 ], [ 93.229787, 26.630830 ], [ 93.228672, 26.630600 ], [ 93.227577, 26.630235 ], [ 93.225474, 26.629813 ], [ 93.223929, 26.629545 ], [ 93.222213, 26.629391 ], [ 93.220346, 26.629276 ], [ 93.218286, 26.629084 ], [ 93.216205, 26.628931 ], [ 93.215089, 26.628988 ], [ 93.213780, 26.628912 ], [ 93.212643, 26.628816 ], [ 93.211677, 26.628816 ], [ 93.210604, 26.628854 ], [ 93.209596, 26.629046 ], [ 93.208652, 26.629065 ], [ 93.207493, 26.629103 ], [ 93.206892, 26.629027 ], [ 93.206270, 26.628816 ], [ 93.205047, 26.628509 ], [ 93.203652, 26.627876 ], [ 93.202708, 26.627454 ], [ 93.201656, 26.626955 ], [ 93.200455, 26.626495 ], [ 93.199060, 26.625958 ], [ 93.198159, 26.625420 ], [ 93.196721, 26.624653 ], [ 93.195047, 26.623694 ], [ 93.193309, 26.622716 ], [ 93.192279, 26.622236 ], [ 93.191206, 26.621891 ], [ 93.190262, 26.621584 ], [ 93.188782, 26.621373 ], [ 93.187881, 26.621200 ], [ 93.186443, 26.621028 ], [ 93.185499, 26.620855 ], [ 93.184297, 26.620682 ], [ 93.182709, 26.620337 ], [ 93.181636, 26.619953 ], [ 93.178804, 26.619224 ], [ 93.177752, 26.618802 ], [ 93.176057, 26.618208 ], [ 93.174684, 26.617709 ], [ 93.173418, 26.617229 ], [ 93.171380, 26.616424 ], [ 93.169878, 26.615963 ], [ 93.169127, 26.615599 ], [ 93.168333, 26.615196 ], [ 93.167539, 26.614640 ], [ 93.166616, 26.614064 ], [ 93.165607, 26.613335 ], [ 93.164685, 26.612702 ], [ 93.164020, 26.611935 ], [ 93.163247, 26.610803 ], [ 93.162711, 26.610016 ], [ 93.162324, 26.609153 ], [ 93.161917, 26.608136 ], [ 93.161595, 26.607100 ], [ 93.161230, 26.605987 ], [ 93.160887, 26.605124 ], [ 93.160415, 26.604165 ], [ 93.159878, 26.603129 ], [ 93.159449, 26.602323 ], [ 93.159106, 26.601268 ], [ 93.158805, 26.600212 ], [ 93.158548, 26.599387 ], [ 93.158333, 26.598466 ], [ 93.158205, 26.597507 ], [ 93.158140, 26.596759 ], [ 93.158097, 26.595703 ], [ 93.157840, 26.594284 ], [ 93.157582, 26.593190 ], [ 93.157089, 26.592307 ], [ 93.156660, 26.591501 ], [ 93.155951, 26.590753 ], [ 93.155050, 26.589909 ], [ 93.154407, 26.589237 ], [ 93.153784, 26.588719 ], [ 93.152497, 26.587894 ], [ 93.151510, 26.587453 ], [ 93.150415, 26.587299 ], [ 93.149729, 26.587107 ], [ 93.148828, 26.586992 ], [ 93.147905, 26.587126 ], [ 93.146274, 26.587146 ], [ 93.145072, 26.587261 ], [ 93.143678, 26.587568 ], [ 93.142519, 26.587587 ], [ 93.141446, 26.587798 ], [ 93.139708, 26.588738 ], [ 93.139086, 26.589007 ], [ 93.138270, 26.589064 ], [ 93.137112, 26.589295 ], [ 93.135781, 26.589563 ], [ 93.134344, 26.589774 ], [ 93.132992, 26.589794 ], [ 93.131554, 26.589755 ], [ 93.130846, 26.589640 ], [ 93.129752, 26.589563 ], [ 93.128936, 26.589525 ], [ 93.128271, 26.589698 ], [ 93.127649, 26.589909 ], [ 93.126662, 26.590177 ], [ 93.125246, 26.589794 ], [ 93.123379, 26.589218 ], [ 93.122113, 26.588604 ], [ 93.120375, 26.587625 ], [ 93.118722, 26.586148 ], [ 93.116941, 26.584920 ], [ 93.115396, 26.583979 ], [ 93.116577, 26.583883 ], [ 93.117735, 26.584171 ], [ 93.118615, 26.584862 ], [ 93.119624, 26.585438 ], [ 93.120611, 26.585822 ], [ 93.121555, 26.585994 ], [ 93.122606, 26.586052 ], [ 93.123851, 26.585917 ], [ 93.124838, 26.585726 ], [ 93.126018, 26.585188 ], [ 93.127348, 26.584555 ], [ 93.128786, 26.583768 ], [ 93.130331, 26.583020 ], [ 93.131683, 26.582655 ], [ 93.135159, 26.581849 ], [ 93.136876, 26.581581 ], [ 93.138571, 26.581408 ], [ 93.139515, 26.581523 ], [ 93.140652, 26.581869 ], [ 93.141661, 26.582463 ], [ 93.142776, 26.583404 ], [ 93.143356, 26.583903 ], [ 93.143785, 26.584171 ], [ 93.144622, 26.584286 ], [ 93.145630, 26.584248 ], [ 93.146682, 26.584517 ], [ 93.147991, 26.584805 ], [ 93.149536, 26.585303 ], [ 93.151231, 26.585879 ], [ 93.152905, 26.586915 ], [ 93.153570, 26.587721 ], [ 93.154428, 26.588757 ], [ 93.155029, 26.589410 ], [ 93.155737, 26.589985 ], [ 93.156617, 26.590542 ], [ 93.157818, 26.591118 ], [ 93.158805, 26.591578 ], [ 93.159621, 26.591732 ], [ 93.161423, 26.592039 ], [ 93.163526, 26.592787 ], [ 93.165071, 26.593650 ], [ 93.166680, 26.594226 ], [ 93.167710, 26.594552 ], [ 93.168783, 26.594955 ], [ 93.169577, 26.595089 ], [ 93.170800, 26.594993 ], [ 93.171594, 26.595224 ], [ 93.172131, 26.595224 ], [ 93.172967, 26.594974 ], [ 93.173697, 26.594840 ], [ 93.174512, 26.595013 ], [ 93.174984, 26.595128 ], [ 93.175757, 26.594936 ], [ 93.176422, 26.594418 ], [ 93.176680, 26.594015 ], [ 93.176787, 26.593305 ], [ 93.176508, 26.592902 ], [ 93.176036, 26.592403 ], [ 93.175285, 26.591808 ], [ 93.174641, 26.590945 ], [ 93.174148, 26.590446 ], [ 93.173954, 26.589736 ], [ 93.174040, 26.588949 ], [ 93.174491, 26.587875 ], [ 93.175156, 26.586762 ], [ 93.175843, 26.585841 ], [ 93.176701, 26.584881 ], [ 93.177881, 26.583826 ], [ 93.178761, 26.583135 ], [ 93.179576, 26.582483 ], [ 93.180263, 26.582041 ], [ 93.181143, 26.581581 ], [ 93.181915, 26.581427 ], [ 93.182752, 26.581350 ], [ 93.183825, 26.581235 ], [ 93.184640, 26.581120 ], [ 93.185198, 26.581043 ], [ 93.185949, 26.580813 ], [ 93.186786, 26.580832 ], [ 93.187902, 26.580756 ], [ 93.188803, 26.580429 ], [ 93.189662, 26.579777 ], [ 93.190391, 26.579374 ], [ 93.190885, 26.579393 ], [ 93.191593, 26.579662 ], [ 93.192151, 26.579758 ], [ 93.192816, 26.579604 ], [ 93.193588, 26.579527 ], [ 93.194125, 26.579700 ], [ 93.194661, 26.580084 ], [ 93.195283, 26.580468 ], [ 93.195734, 26.580698 ], [ 93.196399, 26.580736 ], [ 93.197258, 26.580852 ], [ 93.197665, 26.581139 ], [ 93.197536, 26.581677 ], [ 93.197129, 26.582483 ], [ 93.196635, 26.583020 ], [ 93.196228, 26.583692 ], [ 93.195884, 26.584095 ], [ 93.195477, 26.584248 ], [ 93.195047, 26.584248 ], [ 93.194768, 26.583941 ], [ 93.194253, 26.583135 ], [ 93.193781, 26.582866 ], [ 93.193395, 26.582962 ], [ 93.192987, 26.583538 ], [ 93.192794, 26.584018 ], [ 93.192794, 26.584670 ], [ 93.192708, 26.585227 ], [ 93.192430, 26.585917 ], [ 93.192108, 26.586378 ], [ 93.191636, 26.587126 ], [ 93.191464, 26.587779 ], [ 93.191314, 26.588777 ], [ 93.191378, 26.589621 ], [ 93.191507, 26.590254 ], [ 93.192108, 26.590830 ], [ 93.192558, 26.591002 ], [ 93.193417, 26.591137 ], [ 93.194103, 26.591098 ], [ 93.194919, 26.590983 ], [ 93.195970, 26.590695 ], [ 93.196957, 26.590369 ], [ 93.197579, 26.590062 ], [ 93.198051, 26.589851 ], [ 93.198373, 26.589467 ], [ 93.198609, 26.589007 ], [ 93.198738, 26.588623 ], [ 93.199039, 26.588201 ], [ 93.199511, 26.587990 ], [ 93.200111, 26.587990 ], [ 93.201013, 26.587875 ], [ 93.201807, 26.587683 ], [ 93.202772, 26.587318 ], [ 93.203630, 26.586743 ], [ 93.204017, 26.586359 ], [ 93.204381, 26.585802 ], [ 93.204811, 26.585342 ], [ 93.205304, 26.585035 ], [ 93.205948, 26.584747 ], [ 93.206956, 26.584421 ], [ 93.207901, 26.584152 ], [ 93.209360, 26.583749 ], [ 93.210390, 26.583480 ], [ 93.211548, 26.583289 ], [ 93.212514, 26.583097 ], [ 93.213973, 26.582866 ], [ 93.215110, 26.582943 ], [ 93.215797, 26.583058 ], [ 93.216569, 26.583461 ], [ 93.217256, 26.584037 ], [ 93.217900, 26.584574 ], [ 93.218737, 26.584958 ], [ 93.219531, 26.585265 ], [ 93.220196, 26.585380 ], [ 93.221333, 26.585361 ], [ 93.222191, 26.585188 ], [ 93.222792, 26.584843 ], [ 93.223307, 26.584536 ], [ 93.224123, 26.584363 ], [ 93.225324, 26.584114 ], [ 93.226440, 26.583826 ], [ 93.227599, 26.583404 ], [ 93.228350, 26.583020 ], [ 93.228929, 26.582770 ], [ 93.229787, 26.582060 ], [ 93.231268, 26.581350 ], [ 93.232148, 26.581178 ], [ 93.233542, 26.580890 ], [ 93.234873, 26.580775 ], [ 93.236160, 26.580852 ], [ 93.237040, 26.581005 ], [ 93.238049, 26.581255 ], [ 93.238907, 26.581581 ], [ 93.239765, 26.581696 ], [ 93.241074, 26.581657 ], [ 93.242340, 26.581888 ], [ 93.243456, 26.582060 ], [ 93.244121, 26.582310 ], [ 93.245001, 26.582598 ], [ 93.246224, 26.582847 ], [ 93.247125, 26.582943 ], [ 93.248370, 26.582828 ], [ 93.250601, 26.582521 ], [ 93.252189, 26.582272 ], [ 93.253713, 26.582041 ], [ 93.254764, 26.581792 ], [ 93.255193, 26.581562 ], [ 93.254850, 26.581255 ], [ 93.254099, 26.581293 ], [ 93.253176, 26.581581 ], [ 93.252511, 26.581638 ], [ 93.251717, 26.581792 ], [ 93.251245, 26.581926 ], [ 93.251009, 26.581753 ], [ 93.251503, 26.581427 ], [ 93.252146, 26.580928 ], [ 93.252747, 26.580583 ], [ 93.253326, 26.580333 ], [ 93.254056, 26.580410 ], [ 93.255365, 26.580372 ], [ 93.256588, 26.580314 ], [ 93.257747, 26.580333 ], [ 93.259184, 26.580564 ], [ 93.260407, 26.580756 ], [ 93.261266, 26.580852 ], [ 93.261974, 26.580832 ], [ 93.263519, 26.581139 ], [ 93.264334, 26.581427 ], [ 93.265278, 26.581773 ], [ 93.266673, 26.582060 ], [ 93.268733, 26.582636 ], [ 93.269935, 26.583001 ], [ 93.271351, 26.583423 ], [ 93.272510, 26.583711 ], [ 93.273475, 26.583768 ], [ 93.274891, 26.583922 ], [ 93.276007, 26.583979 ], [ 93.276544, 26.583634 ], [ 93.277187, 26.583500 ], [ 93.278604, 26.583346 ], [ 93.279977, 26.583269 ], [ 93.281114, 26.583327 ], [ 93.281972, 26.583461 ], [ 93.283582, 26.583634 ], [ 93.284934, 26.583730 ], [ 93.286178, 26.583730 ], [ 93.287251, 26.583653 ], [ 93.288581, 26.583500 ], [ 93.289890, 26.583154 ], [ 93.291264, 26.582982 ], [ 93.292122, 26.582886 ], [ 93.292937, 26.582828 ], [ 93.293967, 26.582751 ], [ 93.294997, 26.582982 ], [ 93.296113, 26.583576 ], [ 93.296885, 26.583979 ], [ 93.297637, 26.584267 ], [ 93.298559, 26.584574 ], [ 93.299289, 26.584766 ], [ 93.300233, 26.585035 ], [ 93.301091, 26.585399 ], [ 93.302507, 26.585917 ], [ 93.304417, 26.586589 ], [ 93.305275, 26.587146 ], [ 93.306262, 26.587856 ], [ 93.307164, 26.588470 ], [ 93.308151, 26.588930 ], [ 93.308730, 26.589160 ], [ 93.309975, 26.589525 ], [ 93.311369, 26.589813 ], [ 93.312635, 26.589909 ], [ 93.314137, 26.589928 ], [ 93.315146, 26.589985 ], [ 93.316348, 26.589985 ], [ 93.317807, 26.589966 ], [ 93.319502, 26.589947 ], [ 93.320789, 26.589985 ], [ 93.321905, 26.589909 ], [ 93.322849, 26.589832 ], [ 93.323708, 26.589640 ], [ 93.324738, 26.589256 ], [ 93.326304, 26.588604 ], [ 93.327205, 26.588470 ], [ 93.328063, 26.588105 ], [ 93.328836, 26.587683 ], [ 93.329587, 26.587491 ], [ 93.330510, 26.587299 ], [ 93.331776, 26.587030 ], [ 93.332720, 26.586800 ], [ 93.333728, 26.586455 ], [ 93.334565, 26.586090 ], [ 93.336775, 26.585841 ], [ 93.337634, 26.586167 ], [ 93.337891, 26.586743 ], [ 93.338342, 26.587030 ], [ 93.338964, 26.587318 ], [ 93.339694, 26.587510 ], [ 93.340015, 26.588028 ], [ 93.339758, 26.588681 ], [ 93.339114, 26.588796 ], [ 93.338664, 26.589122 ], [ 93.338363, 26.589832 ], [ 93.338277, 26.590388 ], [ 93.338406, 26.591290 ], [ 93.338599, 26.592096 ], [ 93.338792, 26.592633 ], [ 93.339329, 26.593420 ], [ 93.339393, 26.593957 ], [ 93.339522, 26.594437 ], [ 93.339822, 26.594917 ], [ 93.340294, 26.595377 ], [ 93.340809, 26.595684 ], [ 93.341453, 26.595953 ], [ 93.341646, 26.596567 ], [ 93.341668, 26.597008 ], [ 93.342140, 26.597258 ], [ 93.342676, 26.597315 ], [ 93.343213, 26.596989 ], [ 93.343406, 26.596471 ], [ 93.343492, 26.596145 ], [ 93.343856, 26.596010 ], [ 93.344522, 26.596125 ], [ 93.344929, 26.596644 ], [ 93.344843, 26.597027 ], [ 93.344457, 26.597334 ], [ 93.344007, 26.597737 ], [ 93.344049, 26.598083 ], [ 93.344414, 26.598179 ], [ 93.345315, 26.598025 ], [ 93.345830, 26.597967 ], [ 93.346174, 26.598102 ], [ 93.346603, 26.598063 ], [ 93.346903, 26.597737 ], [ 93.347182, 26.597488 ], [ 93.347547, 26.597603 ], [ 93.347633, 26.597929 ], [ 93.347311, 26.598313 ], [ 93.346817, 26.598716 ], [ 93.346388, 26.599253 ], [ 93.346367, 26.599733 ], [ 93.346581, 26.600136 ], [ 93.347075, 26.600385 ], [ 93.347375, 26.600673 ], [ 93.347311, 26.600980 ], [ 93.347096, 26.601479 ], [ 93.347311, 26.601862 ], [ 93.347847, 26.601997 ], [ 93.348234, 26.601594 ], [ 93.348298, 26.600980 ], [ 93.348556, 26.600596 ], [ 93.348877, 26.600251 ], [ 93.349414, 26.600097 ], [ 93.349886, 26.599886 ], [ 93.350122, 26.599541 ], [ 93.350186, 26.599119 ], [ 93.350444, 26.599004 ], [ 93.351002, 26.599330 ], [ 93.351324, 26.599809 ], [ 93.351581, 26.600212 ], [ 93.351409, 26.600577 ], [ 93.350787, 26.600654 ], [ 93.350422, 26.600865 ], [ 93.350122, 26.601306 ], [ 93.349950, 26.601920 ], [ 93.350015, 26.602419 ], [ 93.350251, 26.602726 ], [ 93.350508, 26.603205 ], [ 93.350594, 26.603647 ], [ 93.351002, 26.604011 ], [ 93.351431, 26.604126 ], [ 93.352096, 26.604241 ], [ 93.352761, 26.604184 ], [ 93.354092, 26.604126 ], [ 93.354521, 26.603973 ], [ 93.355143, 26.603858 ], [ 93.355701, 26.603762 ], [ 93.356559, 26.603608 ], [ 93.357160, 26.603493 ], [ 93.357718, 26.603167 ], [ 93.358297, 26.602706 ], [ 93.358920, 26.602112 ], [ 93.360422, 26.600807 ], [ 93.360872, 26.600136 ], [ 93.361280, 26.599560 ], [ 93.361967, 26.599099 ], [ 93.362653, 26.598658 ], [ 93.363383, 26.598274 ], [ 93.364005, 26.597833 ], [ 93.364627, 26.597545 ], [ 93.365121, 26.597488 ], [ 93.365893, 26.597392 ], [ 93.366365, 26.597219 ], [ 93.366752, 26.596874 ], [ 93.367138, 26.596471 ], [ 93.367438, 26.596202 ], [ 93.368018, 26.596068 ], [ 93.368554, 26.595895 ], [ 93.369069, 26.595684 ], [ 93.369455, 26.595262 ], [ 93.370163, 26.594552 ], [ 93.370678, 26.594379 ], [ 93.371172, 26.594322 ], [ 93.372073, 26.594418 ], [ 93.372910, 26.594591 ], [ 93.373597, 26.594533 ], [ 93.374004, 26.594495 ], [ 93.374691, 26.594917 ], [ 93.374648, 26.595281 ], [ 93.374798, 26.595646 ], [ 93.375442, 26.595972 ], [ 93.376000, 26.596337 ], [ 93.376558, 26.596548 ], [ 93.377159, 26.596835 ], [ 93.377674, 26.596970 ], [ 93.379133, 26.597085 ], [ 93.379519, 26.597334 ], [ 93.379819, 26.597507 ], [ 93.380034, 26.597776 ], [ 93.380506, 26.597603 ], [ 93.380742, 26.597315 ], [ 93.381150, 26.597296 ], [ 93.381944, 26.597507 ], [ 93.382587, 26.597660 ], [ 93.383231, 26.597776 ], [ 93.383961, 26.598006 ], [ 93.385141, 26.598370 ], [ 93.385634, 26.598620 ], [ 93.386579, 26.598965 ], [ 93.387158, 26.599157 ], [ 93.387887, 26.599579 ], [ 93.388510, 26.600040 ], [ 93.389153, 26.600500 ], [ 93.390141, 26.601133 ], [ 93.390999, 26.601613 ], [ 93.391857, 26.602208 ], [ 93.392522, 26.602668 ], [ 93.392930, 26.603052 ], [ 93.393445, 26.603666 ], [ 93.393660, 26.603896 ], [ 93.394153, 26.604126 ], [ 93.394732, 26.604222 ], [ 93.395226, 26.604050 ], [ 93.395591, 26.603723 ], [ 93.396106, 26.603666 ], [ 93.396449, 26.603359 ], [ 93.396728, 26.603186 ], [ 93.397114, 26.603052 ], [ 93.397264, 26.602908 ], [ 93.397543, 26.602745 ], [ 93.397726, 26.602745 ], [ 93.398252, 26.602726 ], [ 93.398799, 26.602659 ], [ 93.399367, 26.602735 ], [ 93.399721, 26.602783 ], [ 93.399979, 26.602793 ], [ 93.400247, 26.602774 ], [ 93.400666, 26.602889 ], [ 93.401095, 26.602975 ], [ 93.401384, 26.603119 ], [ 93.401932, 26.602966 ], [ 93.402425, 26.602706 ], [ 93.402822, 26.602428 ], [ 93.403004, 26.602284 ], [ 93.403326, 26.602236 ], [ 93.403541, 26.602428 ], [ 93.403680, 26.602783 ], [ 93.403541, 26.603129 ], [ 93.403348, 26.603647 ], [ 93.403230, 26.604213 ], [ 93.403176, 26.604539 ], [ 93.403219, 26.604807 ], [ 93.403401, 26.605047 ], [ 93.403573, 26.605249 ], [ 93.403745, 26.605488 ], [ 93.403691, 26.605699 ], [ 93.403552, 26.605901 ], [ 93.403498, 26.606160 ], [ 93.403691, 26.606265 ], [ 93.404002, 26.606208 ], [ 93.404238, 26.606006 ], [ 93.404410, 26.605911 ], [ 93.404657, 26.605930 ], [ 93.404839, 26.606045 ], [ 93.405043, 26.606016 ], [ 93.405300, 26.606016 ], [ 93.405418, 26.606141 ], [ 93.405429, 26.606409 ], [ 93.405333, 26.606735 ], [ 93.405215, 26.606899 ], [ 93.404957, 26.607042 ], [ 93.404700, 26.607119 ], [ 93.404517, 26.607292 ], [ 93.404464, 26.607512 ], [ 93.404378, 26.607685 ], [ 93.404195, 26.607819 ], [ 93.403927, 26.608002 ], [ 93.403970, 26.608194 ], [ 93.404099, 26.608357 ], [ 93.404367, 26.608443 ], [ 93.404753, 26.608501 ], [ 93.405000, 26.608625 ], [ 93.405139, 26.608769 ], [ 93.405354, 26.608702 ], [ 93.405418, 26.608453 ], [ 93.405493, 26.608213 ], [ 93.405740, 26.608107 ], [ 93.406062, 26.608155 ], [ 93.406255, 26.608357 ], [ 93.406481, 26.608587 ], [ 93.406792, 26.608644 ], [ 93.407081, 26.608731 ], [ 93.407274, 26.608923 ], [ 93.407468, 26.609124 ], [ 93.407693, 26.609249 ], [ 93.408165, 26.609412 ], [ 93.408455, 26.609517 ], [ 93.408701, 26.609517 ], [ 93.408787, 26.609402 ], [ 93.408723, 26.609114 ], [ 93.408723, 26.608932 ], [ 93.408777, 26.608769 ], [ 93.409098, 26.608692 ], [ 93.409431, 26.608855 ], [ 93.409613, 26.608980 ], [ 93.409849, 26.608971 ], [ 93.409925, 26.608807 ], [ 93.409946, 26.608654 ], [ 93.410107, 26.608596 ], [ 93.410321, 26.608673 ], [ 93.410600, 26.608616 ], [ 93.410708, 26.608462 ], [ 93.410922, 26.608347 ], [ 93.411105, 26.608280 ], [ 93.411384, 26.608357 ], [ 93.411641, 26.608606 ], [ 93.411824, 26.608760 ], [ 93.412178, 26.608798 ], [ 93.412532, 26.608827 ], [ 93.412961, 26.608942 ], [ 93.413261, 26.609028 ], [ 93.413454, 26.609114 ], [ 93.413647, 26.609086 ], [ 93.413873, 26.609086 ], [ 93.414130, 26.609191 ], [ 93.414345, 26.609316 ], [ 93.414549, 26.609383 ], [ 93.414795, 26.609421 ], [ 93.414967, 26.609623 ], [ 93.414946, 26.609815 ], [ 93.414913, 26.610064 ], [ 93.415074, 26.610179 ], [ 93.415450, 26.610093 ], [ 93.415600, 26.609930 ], [ 93.415686, 26.609728 ], [ 93.415815, 26.609556 ], [ 93.415997, 26.609527 ], [ 93.416276, 26.609632 ], [ 93.416458, 26.609623 ], [ 93.416523, 26.609431 ], [ 93.416716, 26.609373 ], [ 93.416984, 26.609537 ], [ 93.417295, 26.609642 ], [ 93.417628, 26.609652 ], [ 93.417896, 26.609690 ], [ 93.418121, 26.609652 ], [ 93.418400, 26.609671 ], [ 93.418722, 26.609786 ], [ 93.418969, 26.609911 ], [ 93.419130, 26.609843 ], [ 93.419377, 26.609748 ], [ 93.419570, 26.609834 ], [ 93.419784, 26.610016 ], [ 93.420010, 26.610131 ], [ 93.420160, 26.610131 ], [ 93.420407, 26.610141 ], [ 93.420750, 26.610333 ], [ 93.420943, 26.610505 ], [ 93.421158, 26.610429 ], [ 93.421319, 26.610227 ], [ 93.421587, 26.610266 ], [ 93.421683, 26.610457 ], [ 93.421662, 26.610688 ], [ 93.421726, 26.610831 ], [ 93.421984, 26.610716 ], [ 93.422080, 26.610544 ], [ 93.422348, 26.610553 ], [ 93.422810, 26.610678 ], [ 93.422960, 26.610879 ], [ 93.423014, 26.611158 ], [ 93.423035, 26.611330 ], [ 93.423239, 26.611234 ], [ 93.423432, 26.610966 ], [ 93.423550, 26.611158 ], [ 93.423486, 26.611388 ], [ 93.423539, 26.611580 ], [ 93.423808, 26.611666 ], [ 93.424151, 26.611800 ], [ 93.424237, 26.612117 ], [ 93.424387, 26.612385 ], [ 93.424634, 26.612481 ], [ 93.424773, 26.612328 ], [ 93.424655, 26.612031 ], [ 93.424623, 26.611810 ], [ 93.424677, 26.611676 ], [ 93.424891, 26.611714 ], [ 93.425213, 26.611743 ], [ 93.425395, 26.611762 ], [ 93.425406, 26.611580 ], [ 93.425385, 26.611407 ], [ 93.425567, 26.611321 ], [ 93.425739, 26.611417 ], [ 93.425986, 26.611378 ], [ 93.426189, 26.611311 ], [ 93.426329, 26.611407 ], [ 93.426490, 26.611666 ], [ 93.426672, 26.611819 ], [ 93.426973, 26.611839 ], [ 93.427262, 26.611656 ], [ 93.427552, 26.611570 ], [ 93.427788, 26.611772 ], [ 93.427777, 26.612088 ], [ 93.427573, 26.612520 ], [ 93.427563, 26.612788 ], [ 93.427809, 26.612932 ], [ 93.428099, 26.613086 ], [ 93.428421, 26.613124 ], [ 93.428721, 26.613028 ], [ 93.428721, 26.612855 ], [ 93.428378, 26.612798 ], [ 93.428088, 26.612712 ], [ 93.428228, 26.612529 ], [ 93.428539, 26.612357 ], [ 93.428872, 26.612222 ], [ 93.429161, 26.612337 ], [ 93.429290, 26.612644 ], [ 93.429290, 26.612951 ], [ 93.429290, 26.613239 ], [ 93.429430, 26.613412 ], [ 93.429751, 26.613527 ], [ 93.429784, 26.613757 ], [ 93.429751, 26.613997 ], [ 93.430030, 26.614122 ], [ 93.430588, 26.614198 ], [ 93.431114, 26.614352 ], [ 93.431489, 26.614486 ], [ 93.431854, 26.614668 ], [ 93.432080, 26.614688 ], [ 93.432305, 26.614496 ], [ 93.432498, 26.614342 ], [ 93.432691, 26.614390 ], [ 93.433163, 26.614553 ], [ 93.434021, 26.614592 ], [ 93.434676, 26.614419 ], [ 93.435159, 26.614505 ], [ 93.435438, 26.614572 ], [ 93.435845, 26.614438 ], [ 93.435953, 26.614208 ], [ 93.436371, 26.614246 ], [ 93.436596, 26.614409 ], [ 93.436886, 26.614352 ], [ 93.436961, 26.614083 ], [ 93.437294, 26.614141 ], [ 93.437659, 26.614323 ], [ 93.437980, 26.614304 ], [ 93.438259, 26.614189 ], [ 93.438549, 26.614016 ], [ 93.438925, 26.613863 ], [ 93.439364, 26.613757 ], [ 93.439815, 26.613776 ], [ 93.440223, 26.613767 ], [ 93.440588, 26.613728 ], [ 93.440974, 26.613757 ], [ 93.441553, 26.613872 ], [ 93.442079, 26.614006 ], [ 93.442465, 26.614112 ], [ 93.442723, 26.614083 ], [ 93.443152, 26.614131 ], [ 93.443549, 26.614237 ], [ 93.443785, 26.614256 ], [ 93.444321, 26.614390 ], [ 93.444922, 26.614419 ], [ 93.445630, 26.614419 ], [ 93.446456, 26.614477 ], [ 93.447025, 26.614668 ], [ 93.447379, 26.614831 ], [ 93.447948, 26.614975 ], [ 93.448280, 26.615052 ], [ 93.448709, 26.615062 ], [ 93.449063, 26.614956 ], [ 93.449889, 26.614553 ], [ 93.450265, 26.614409 ], [ 93.450683, 26.614381 ], [ 93.451059, 26.614361 ], [ 93.451595, 26.614304 ], [ 93.452035, 26.614371 ], [ 93.452464, 26.614544 ], [ 93.452936, 26.614611 ], [ 93.453344, 26.614668 ], [ 93.453956, 26.614793 ], [ 93.454320, 26.614908 ], [ 93.454685, 26.614927 ], [ 93.455018, 26.614812 ], [ 93.455490, 26.614534 ], [ 93.456037, 26.614304 ], [ 93.456509, 26.614256 ], [ 93.457056, 26.614438 ], [ 93.457464, 26.614745 ], [ 93.457958, 26.615052 ], [ 93.458494, 26.615244 ], [ 93.459095, 26.615359 ], [ 93.459631, 26.615560 ], [ 93.459889, 26.615714 ], [ 93.460275, 26.615810 ], [ 93.461219, 26.616232 ], [ 93.461777, 26.616606 ], [ 93.462056, 26.616903 ], [ 93.462421, 26.617181 ], [ 93.462893, 26.617508 ], [ 93.463300, 26.617824 ], [ 93.463805, 26.618121 ], [ 93.464373, 26.618390 ], [ 93.464824, 26.618707 ], [ 93.465114, 26.618946 ], [ 93.465436, 26.619061 ], [ 93.465779, 26.619090 ], [ 93.466187, 26.618927 ], [ 93.466691, 26.618850 ], [ 93.467002, 26.618822 ], [ 93.467517, 26.618898 ], [ 93.468000, 26.619061 ], [ 93.468375, 26.619330 ], [ 93.468708, 26.619551 ], [ 93.468965, 26.619886 ], [ 93.469212, 26.620155 ], [ 93.469620, 26.620452 ], [ 93.470006, 26.620759 ], [ 93.470296, 26.620980 ], [ 93.470703, 26.621344 ], [ 93.471293, 26.621747 ], [ 93.471562, 26.622054 ], [ 93.471766, 26.622332 ], [ 93.471787, 26.622572 ], [ 93.472087, 26.622831 ], [ 93.472710, 26.622658 ], [ 93.473461, 26.622064 ], [ 93.474147, 26.621354 ], [ 93.474963, 26.620759 ], [ 93.475842, 26.619973 ], [ 93.476872, 26.619071 ], [ 93.477666, 26.618591 ], [ 93.478289, 26.618246 ], [ 93.479061, 26.617882 ], [ 93.480284, 26.617229 ], [ 93.481550, 26.616903 ], [ 93.482323, 26.616884 ], [ 93.483160, 26.616942 ], [ 93.483996, 26.617114 ], [ 93.485198, 26.617383 ], [ 93.486378, 26.617594 ], [ 93.487365, 26.617939 ], [ 93.488653, 26.618169 ], [ 93.489661, 26.618476 ], [ 93.490047, 26.618639 ], [ 93.490326, 26.618572 ], [ 93.490498, 26.618361 ], [ 93.490680, 26.618400 ], [ 93.490938, 26.618659 ], [ 93.491088, 26.618937 ], [ 93.491260, 26.619196 ], [ 93.491474, 26.619359 ], [ 93.491689, 26.619579 ], [ 93.492043, 26.619867 ], [ 93.492526, 26.619992 ], [ 93.493288, 26.619666 ], [ 93.494071, 26.619723 ], [ 93.494790, 26.619733 ], [ 93.495423, 26.619858 ], [ 93.495637, 26.619618 ], [ 93.495852, 26.619330 ], [ 93.496174, 26.619205 ], [ 93.496689, 26.619244 ], [ 93.497139, 26.619244 ], [ 93.497450, 26.619148 ], [ 93.497804, 26.619023 ], [ 93.498352, 26.618994 ], [ 93.498566, 26.619004 ], [ 93.498995, 26.619023 ], [ 93.499607, 26.619282 ], [ 93.500025, 26.619301 ], [ 93.500293, 26.619263 ], [ 93.500583, 26.619071 ], [ 93.500723, 26.618927 ], [ 93.501002, 26.618831 ], [ 93.501302, 26.618927 ], [ 93.501645, 26.618994 ], [ 93.501924, 26.618965 ], [ 93.502182, 26.619004 ], [ 93.502493, 26.619100 ], [ 93.502740, 26.619205 ], [ 93.502976, 26.619167 ], [ 93.503180, 26.619176 ], [ 93.503458, 26.619388 ], [ 93.503555, 26.619531 ], [ 93.503652, 26.619723 ], [ 93.503952, 26.619819 ], [ 93.504306, 26.620001 ], [ 93.504499, 26.620088 ], [ 93.504735, 26.620164 ], [ 93.504982, 26.620327 ], [ 93.505229, 26.620491 ], [ 93.505347, 26.620663 ], [ 93.505540, 26.620797 ], [ 93.505905, 26.620769 ], [ 93.506291, 26.620922 ], [ 93.506548, 26.621066 ], [ 93.506881, 26.621172 ], [ 93.507224, 26.621239 ], [ 93.507632, 26.621383 ], [ 93.507814, 26.621594 ], [ 93.507857, 26.621766 ], [ 93.508115, 26.621862 ], [ 93.508351, 26.621862 ], [ 93.508576, 26.621881 ], [ 93.508844, 26.621996 ], [ 93.508973, 26.622179 ], [ 93.508941, 26.622457 ], [ 93.508909, 26.622802 ], [ 93.508683, 26.623224 ], [ 93.508630, 26.623512 ], [ 93.508565, 26.623742 ], [ 93.508351, 26.624174 ], [ 93.508254, 26.624509 ], [ 93.508168, 26.624787 ], [ 93.507943, 26.625037 ], [ 93.507696, 26.625152 ], [ 93.507600, 26.625468 ], [ 93.507482, 26.625795 ], [ 93.507503, 26.626236 ], [ 93.507771, 26.626514 ], [ 93.507868, 26.626754 ], [ 93.507922, 26.627204 ], [ 93.508040, 26.627559 ], [ 93.508168, 26.627905 ], [ 93.508254, 26.628240 ], [ 93.508469, 26.628557 ], [ 93.508576, 26.628825 ], [ 93.508801, 26.629027 ], [ 93.509263, 26.629756 ], [ 93.509220, 26.630158 ], [ 93.509145, 26.630369 ], [ 93.509177, 26.630619 ], [ 93.509327, 26.630916 ], [ 93.509510, 26.631386 ], [ 93.509499, 26.631664 ], [ 93.509756, 26.631856 ], [ 93.509960, 26.632172 ], [ 93.509982, 26.632489 ], [ 93.510035, 26.632805 ], [ 93.510121, 26.633026 ], [ 93.510239, 26.633496 ], [ 93.510411, 26.633918 ], [ 93.510540, 26.634148 ], [ 93.510776, 26.634426 ], [ 93.510926, 26.634771 ], [ 93.511108, 26.635155 ], [ 93.511162, 26.635452 ], [ 93.511258, 26.635798 ], [ 93.511409, 26.636172 ], [ 93.511698, 26.636594 ], [ 93.511773, 26.636900 ], [ 93.511795, 26.637313 ], [ 93.511881, 26.637629 ], [ 93.512020, 26.637869 ], [ 93.511913, 26.638070 ], [ 93.511623, 26.638147 ], [ 93.511130, 26.638243 ], [ 93.510743, 26.638243 ], [ 93.510464, 26.638195 ], [ 93.510164, 26.638147 ], [ 93.509842, 26.638205 ], [ 93.509467, 26.638281 ], [ 93.509037, 26.638310 ], [ 93.508673, 26.638310 ], [ 93.508319, 26.638262 ], [ 93.507997, 26.638224 ], [ 93.507632, 26.638186 ], [ 93.507203, 26.638051 ], [ 93.506784, 26.637994 ], [ 93.506387, 26.637898 ], [ 93.506087, 26.637879 ], [ 93.505669, 26.637764 ], [ 93.505164, 26.637668 ], [ 93.504853, 26.637505 ], [ 93.504585, 26.637332 ], [ 93.504092, 26.637198 ], [ 93.503662, 26.637063 ], [ 93.503233, 26.636929 ], [ 93.502772, 26.636805 ], [ 93.502289, 26.636622 ], [ 93.501903, 26.636440 ], [ 93.501377, 26.636248 ], [ 93.500766, 26.636133 ], [ 93.500369, 26.636037 ], [ 93.500057, 26.635999 ], [ 93.499435, 26.635903 ], [ 93.499081, 26.635874 ], [ 93.498566, 26.635846 ], [ 93.498008, 26.635893 ], [ 93.497493, 26.635941 ], [ 93.497000, 26.636066 ], [ 93.496614, 26.636104 ], [ 93.496270, 26.636258 ], [ 93.495873, 26.636440 ], [ 93.495069, 26.636737 ], [ 93.494414, 26.637073 ], [ 93.493931, 26.637351 ], [ 93.493416, 26.637668 ], [ 93.493191, 26.638032 ], [ 93.492955, 26.638416 ], [ 93.492805, 26.638742 ], [ 93.492644, 26.639250 ], [ 93.492676, 26.639720 ], [ 93.492762, 26.640008 ], [ 93.492848, 26.640276 ], [ 93.492987, 26.640871 ], [ 93.493159, 26.641312 ], [ 93.493266, 26.641571 ], [ 93.493513, 26.641916 ], [ 93.493727, 26.642319 ], [ 93.493910, 26.642750 ], [ 93.494017, 26.643134 ], [ 93.494135, 26.643470 ], [ 93.494253, 26.643786 ], [ 93.494360, 26.644083 ], [ 93.494425, 26.644486 ], [ 93.494543, 26.644879 ], [ 93.494693, 26.645359 ], [ 93.494897, 26.645761 ], [ 93.495187, 26.646155 ], [ 93.495358, 26.646413 ], [ 93.495648, 26.646624 ], [ 93.495938, 26.646826 ], [ 93.496120, 26.647046 ], [ 93.496549, 26.647430 ], [ 93.496828, 26.647631 ], [ 93.497279, 26.647814 ], [ 93.497719, 26.647909 ], [ 93.498126, 26.647977 ], [ 93.498448, 26.647967 ], [ 93.498652, 26.647823 ], [ 93.498813, 26.647622 ], [ 93.498974, 26.647487 ], [ 93.499156, 26.647478 ], [ 93.499306, 26.647593 ], [ 93.499264, 26.647881 ], [ 93.499285, 26.648092 ], [ 93.499489, 26.648197 ], [ 93.499703, 26.648159 ], [ 93.500068, 26.648197 ], [ 93.500412, 26.648322 ], [ 93.500776, 26.648600 ], [ 93.501152, 26.648705 ], [ 93.501645, 26.648705 ], [ 93.502246, 26.648772 ], [ 93.502868, 26.648945 ], [ 93.503458, 26.648983 ], [ 93.503973, 26.649031 ], [ 93.504328, 26.649089 ], [ 93.504692, 26.649108 ], [ 93.505250, 26.649233 ], [ 93.505765, 26.649434 ], [ 93.506259, 26.649779 ], [ 93.506452, 26.650057 ], [ 93.506774, 26.650451 ], [ 93.506999, 26.650623 ], [ 93.507353, 26.650901 ], [ 93.507568, 26.651237 ], [ 93.507857, 26.651553 ], [ 93.508286, 26.651918 ], [ 93.508630, 26.652234 ], [ 93.508930, 26.652503 ], [ 93.509113, 26.652771 ], [ 93.509477, 26.653845 ], [ 93.509617, 26.654334 ], [ 93.509821, 26.654765 ], [ 93.510046, 26.655561 ], [ 93.510153, 26.656117 ], [ 93.510228, 26.656616 ], [ 93.510422, 26.657134 ], [ 93.510464, 26.657489 ], [ 93.510400, 26.658026 ], [ 93.510379, 26.658428 ], [ 93.510250, 26.658812 ], [ 93.510025, 26.659320 ], [ 93.509917, 26.659636 ], [ 93.509531, 26.659924 ], [ 93.509284, 26.660221 ], [ 93.509134, 26.660413 ] ] } }

]
}
